{"type":"FeatureCollection", "features": [
{"type":"Feature","geometry":{"type":"MultiPolygon","coordinates":[[[[135.4865,35.558],[135.4521,35.5675],[135.4619,35.6035],[135.4337,35.5907],[135.4263,35.5665],[135.3423,35.5518],[135.3445,35.5041],[135.3963,35.5152],[135.3975,35.4788],[135.3468,35.494],[135.3163,35.4512],[135.3303,35.517],[135.2882,35.5155],[135.2442,35.5359],[135.2449,35.5613],[135.2739,35.5609],[135.2507,35.5702],[135.2547,35.5989],[135.1931,35.5383],[135.1926,35.5711],[135.268,35.6674],[135.2874,35.6756],[135.3029,35.6628],[135.308,35.6944],[135.223,35.7792],[135.0857,35.7398],[135.0607,35.7081],[135.0222,35.6895],[134.9849,35.6923],[134.9353,35.6505],[134.8671,35.6581],[134.8406,35.6427],[134.7992,35.6699],[134.769,35.6594],[134.7639,35.6747],[134.7564,35.6617],[134.7095,35.6655],[134.7034,35.6532],[134.6872,35.6651],[134.662,35.6484],[134.657,35.6655],[134.6218,35.6393],[134.5978,35.6587],[134.5581,35.6511],[134.5369,35.6699],[134.4509,35.629],[134.4389,35.6359],[134.4312,35.6202],[134.3695,35.6146],[134.4208,35.5629],[134.4123,35.5153],[134.4299,35.5032],[134.4398,35.4428],[134.4795,35.4253],[134.4722,35.378],[134.5133,35.3539],[134.5146,35.2773],[134.4624,35.2367],[134.4022,35.241],[134.38,35.2081],[134.4114,35.1861],[134.4082,35.1479],[134.3663,35.1454],[134.3486,35.0903],[134.3185,35.0829],[134.3161,35.0433],[134.2829,35.038],[134.2641,35.0157],[134.2861,34.9959],[134.2543,34.9377],[134.2944,34.9075],[134.2629,34.8849],[134.2531,34.8513],[134.2632,34.8267],[134.2874,34.8277],[134.3165,34.8016],[134.3338,34.7682],[134.314,34.7405],[134.3213,34.7218],[134.3632,34.7407],[134.3583,34.7512],[134.3847,34.7261],[134.4105,34.7278],[134.4299,34.7641],[134.4552,34.7675],[134.4503,34.7537],[134.4633,34.7651],[134.4658,34.8085],[134.4739,34.7552],[134.528,34.7827],[134.5648,34.7605],[134.5704,34.7732],[134.5709,34.7581],[134.6049,34.7794],[134.6235,34.7694],[134.6221,34.7837],[134.6435,34.7834],[134.6315,34.7725],[134.645,34.7673],[134.6554,34.7885],[134.65,34.7705],[134.664,34.7843],[134.6651,34.7679],[134.7432,34.7692],[134.7973,34.7331],[134.8101,34.7423],[134.8263,34.7063],[134.8477,34.7203],[134.9655,34.6465],[135.0596,34.6255],[135.1833,34.6494],[135.19,34.6855],[135.2881,34.704],[135.3225,34.7259],[135.3632,34.7063],[135.3712,34.6808],[135.4013,34.6992],[135.3762,34.6766],[135.4028,34.6932],[135.4239,34.6932],[135.4143,34.6516],[135.4508,34.6453],[135.4472,34.6147],[135.4413,34.6261],[135.4234,34.619],[135.4454,34.5982],[135.4235,34.605],[135.4255,34.5934],[135.4664,34.5846],[135.4503,34.5837],[135.4525,34.5649],[135.4261,34.5897],[135.4209,34.5696],[135.402,34.5999],[135.4105,34.5608],[135.4457,34.5569],[135.4318,34.5322],[135.4186,34.5193],[135.4103,34.523],[135.4052,34.5104],[135.4021,34.5185],[135.3901,34.5055],[135.3783,34.532],[135.376,34.4733],[135.3661,34.4807],[135.3531,34.4508],[135.2182,34.3449],[135.0931,34.3117],[135.0735,34.3041],[135.0611,34.2635],[135.1203,34.2431],[135.1277,34.2272],[135.1,34.2357],[135.1066,34.2283],[135.138,34.2253],[135.1417,34.1871],[135.1769,34.1754],[135.1795,34.1865],[135.1838,34.1483],[135.2087,34.1494],[135.1243,34.1359],[135.1445,34.1112],[135.1153,34.1199],[135.0789,34.0734],[135.1358,34.0643],[135.1734,34.0319],[135.1388,34.0188],[135.15,34.0065],[135.0675,33.9761],[135.0806,33.956],[135.1146,33.9597],[135.068,33.9309],[135.0832,33.9111],[135.058,33.9025],[135.0572,33.8797],[135.1133,33.8933],[135.1438,33.8834],[135.186,33.8191],[135.235,33.7983],[135.2344,33.7813],[135.311,33.7693],[135.3281,33.7415],[135.354,33.744],[135.3539,33.7262],[135.3998,33.7203],[135.3773,33.6833],[135.3596,33.677],[135.3547,33.6951],[135.3351,33.6945],[135.33,33.6701],[135.393,33.6393],[135.3918,33.5907],[135.4472,33.5641],[135.4463,33.5491],[135.4876,33.5503],[135.511,33.5252],[135.5707,33.5166],[135.5924,33.498],[135.6302,33.5086],[135.6637,33.4905],[135.7005,33.4934],[135.708,33.4781],[135.7594,33.4841],[135.7759,33.4651],[135.7524,33.4377],[135.7873,33.4378],[135.7982,33.4989],[135.8779,33.5283],[135.9238,33.5593],[135.89,33.5559],[135.9227,33.5759],[135.9576,33.5806],[135.9609,33.595],[135.9258,33.6046],[135.95,33.6299],[135.9517,33.6192],[135.952,33.6325],[135.9358,33.6402],[135.9791,33.6489],[135.974,33.6785],[136.0113,33.7235],[135.9835,33.736],[135.9762,33.7233],[135.9533,33.7286],[135.937,33.7575],[135.9071,33.7667],[135.89,33.8019],[135.8563,33.818],[135.8576,33.8729],[135.8744,33.8615],[135.9013,33.8835],[135.8838,33.8864],[135.8804,33.9091],[135.9086,33.9184],[135.9323,33.9167],[135.9177,33.9222],[135.9278,33.9409],[135.9686,33.929],[135.9766,33.9664],[135.9991,33.9556],[136.011,33.9662],[136.0032,34.0097],[136.0377,34.0403],[136.1033,34.0255],[136.0927,34.0826],[136.1182,34.0822],[136.099,34.1187],[136.1086,34.1843],[136.0926,34.19],[136.1311,34.2517],[136.0947,34.301],[136.1292,34.3159],[136.0687,34.3935],[136.0958,34.4352],[136.2059,34.4485],[136.229,34.4941],[136.2163,34.5281],[136.1671,34.52],[136.1556,34.5587],[136.1142,34.5459],[136.0495,34.5801],[136.0725,34.6366],[136.0403,34.6633],[136.0635,34.6521],[136.0855,34.6763],[136.0533,34.7051],[136.07,34.7137],[136.0552,34.7384],[136.0285,34.7572],[136.0218,34.7915],[136.0903,34.8139],[136.0857,34.8375],[136.1266,34.8618],[136.0852,34.8777],[136.1106,34.9019],[136.1308,34.8831],[136.1794,34.8865],[136.2503,34.8578],[136.3656,34.9049],[136.373,34.9418],[136.4143,34.9796],[136.4182,35.0484],[136.4412,35.0651],[136.436,35.1301],[136.4543,35.1616],[136.4083,35.1872],[136.4149,35.2177],[136.3781,35.2427],[136.3965,35.2574],[136.4134,35.3713],[136.4441,35.3895],[136.4115,35.4186],[136.4197,35.4665],[136.3872,35.4879],[136.4002,35.5299],[136.3718,35.5597],[136.3457,35.536],[136.3178,35.5469],[136.3233,35.6163],[136.2887,35.6203],[136.2806,35.6587],[136.185,35.7037],[136.15,35.6978],[136.1342,35.6699],[136.1767,35.5961],[136.1685,35.5655],[136.1133,35.5829],[136.1051,35.5288],[136.0831,35.5404],[136.0699,35.5266],[136.0261,35.5296],[136.0059,35.4916],[135.9815,35.4868],[135.9398,35.5204],[135.8904,35.4038],[135.8616,35.3951],[135.8528,35.4115],[135.8151,35.4131],[135.8071,35.3853],[135.7905,35.3867],[135.7684,35.3561],[135.7007,35.3437],[135.6419,35.3668],[135.5285,35.3797],[135.5253,35.4207],[135.4958,35.4251],[135.4591,35.4675],[135.4748,35.5049],[135.449,35.5235],[135.4865,35.558]]],[[[134.332,34.5631],[134.2618,34.552],[134.1861,34.5159],[134.1715,34.5289],[134.156,34.5047],[134.1803,34.4873],[134.1568,34.4929],[134.1413,34.4698],[134.1517,34.4603],[134.1943,34.4843],[134.2277,34.4805],[134.2413,34.4581],[134.2236,34.4373],[134.2364,34.4375],[134.232,34.4145],[134.2671,34.4675],[134.2967,34.4798],[134.3149,34.459],[134.2883,34.4621],[134.2777,34.4468],[134.3189,34.458],[134.3378,34.4342],[134.3595,34.5301],[134.3443,34.5457],[134.3648,34.5611],[134.332,34.5631]]],[[[134.0069,34.4982],[134.0205,34.4788],[134.0234,34.5069],[134.0069,34.4982]]],[[[134.0795,34.4598],[134.1023,34.4917],[134.0819,34.4999],[134.0359,34.4826],[134.0795,34.4598]]],[[[133.9913,34.4431],[134.012,34.4534],[133.9679,34.4785],[133.9913,34.4431]]],[[[133.6659,34.3825],[133.6742,34.4099],[133.6517,34.4088],[133.6659,34.3825]]],[[[133.7639,34.3691],[133.7886,34.3956],[133.7522,34.3983],[133.7639,34.3691]]],[[[133.6994,34.3517],[133.73,34.3712],[133.7116,34.4003],[133.6852,34.3647],[133.6994,34.3517]]],[[[133.5979,34.0436],[133.679,34.0124],[133.692,33.9458],[133.6755,33.9263],[133.6891,33.9161],[133.6602,33.8816],[133.6768,33.8586],[133.7468,33.8368],[133.8386,33.8446],[133.8718,33.806],[133.9131,33.7915],[133.9409,33.7991],[133.9604,33.8347],[133.984,33.8408],[133.9968,33.821],[134.0324,33.8283],[134.0673,33.7262],[134.0575,33.6908],[134.1743,33.6836],[134.1835,33.6489],[134.1492,33.6291],[134.1927,33.5615],[134.3052,33.5485],[134.3166,33.581],[134.3622,33.5805],[134.332,33.5844],[134.3633,33.5889],[134.3888,33.6233],[134.3618,33.627],[134.3955,33.6561],[134.5166,33.7015],[134.5433,33.7366],[134.557,33.745],[134.5665,33.7327],[134.5797,33.7699],[134.6019,33.7647],[134.6208,33.7867],[134.6412,33.7807],[134.7495,33.8345],[134.6805,33.8301],[134.7193,33.8452],[134.6428,33.8427],[134.6454,33.8659],[134.6285,33.8573],[134.6527,33.8823],[134.6747,33.8797],[134.7058,33.9257],[134.634,34.0097],[134.6058,33.9827],[134.6139,33.9967],[134.5884,34.0117],[134.6037,34.1197],[134.6418,34.1802],[134.623,34.1813],[134.5829,34.2039],[134.5835,34.2393],[134.5717,34.2223],[134.5063,34.2257],[134.4397,34.2079],[134.3774,34.2616],[134.3419,34.2532],[134.3067,34.2775],[134.262,34.2829],[134.2468,34.3077],[134.2658,34.336],[134.2491,34.3515],[134.2332,34.3373],[134.2101,34.3694],[134.2129,34.3502],[134.1817,34.3526],[134.19,34.332],[134.165,34.3259],[134.1621,34.3842],[134.1382,34.3987],[134.1204,34.3982],[134.1222,34.3606],[134.0911,34.3848],[134.0683,34.3471],[134.0697,34.362],[134.0595,34.3478],[134.0008,34.3511],[133.927,34.3896],[133.8889,34.3779],[133.894,34.3542],[133.8645,34.3271],[133.8304,34.3315],[133.8565,34.3456],[133.8529,34.3597],[133.8284,34.3425],[133.84,34.3608],[133.8186,34.3529],[133.8286,34.3229],[133.7884,34.308],[133.7923,34.2942],[133.7813,34.3099],[133.7777,34.2895],[133.7615,34.2999],[133.7721,34.2883],[133.7307,34.2786],[133.7366,34.2632],[133.6735,34.2218],[133.6716,34.2465],[133.6218,34.2355],[133.5591,34.2639],[133.6479,34.1935],[133.6336,34.0716],[133.5979,34.0436]]],[[[133.6218,34.2559],[133.655,34.2809],[133.6387,34.2722],[133.623,34.2864],[133.6218,34.2559]]],[[[133.5314,34.1246],[133.5415,34.1307],[133.526,34.1365],[133.5314,34.1246]]],[[[135.8318,33.4491],[135.8625,33.4725],[135.8109,33.4811],[135.7983,33.4626],[135.8318,33.4491]]],[[[135.4097,34.659],[135.4025,34.6733],[135.3879,34.6677],[135.4097,34.659]]],[[[135.3921,34.6423],[135.4045,34.6537],[135.3794,34.6601],[135.3921,34.6423]]],[[[135.4222,34.6219],[135.4393,34.6412],[135.3986,34.6384],[135.4222,34.6219]]],[[[135.4263,34.5471],[135.4201,34.538],[135.4093,34.5544],[135.3991,34.5364],[135.4211,34.5246],[135.4407,34.5544],[135.4263,34.5471]]],[[[135.2294,34.446],[135.2013,34.4283],[135.2288,34.4309],[135.227,34.4132],[135.2646,34.4377],[135.2331,34.4319],[135.2521,34.4468],[135.2294,34.446]]],[[[135.3212,34.7048],[135.3221,34.7164],[135.3062,34.7131],[135.3212,34.7048]]],[[[134.853,34.694],[134.8617,34.7073],[134.8476,34.7121],[134.8397,34.6964],[134.853,34.694]]],[[[134.8676,34.6993],[134.857,34.692],[134.8774,34.6849],[134.8676,34.6993]]],[[[135.2548,34.6779],[135.2906,34.6819],[135.2881,34.6968],[135.2523,34.6932],[135.2548,34.6779]]],[[[134.5419,34.6588],[134.5348,34.6865],[134.5077,34.6771],[134.5419,34.6588]]],[[[135.2173,34.6502],[135.245,34.6506],[135.22,34.6827],[135.2013,34.6735],[135.2173,34.6502]]],[[[134.5727,34.6513],[134.5906,34.6632],[134.5735,34.6769],[134.5727,34.6513]]],[[[134.4677,34.6408],[134.5003,34.6454],[134.495,34.6689],[134.4657,34.6657],[134.4677,34.6408]]],[[[134.5155,34.6359],[134.5144,34.6594],[134.5012,34.6435],[134.5155,34.6359]]],[[[135.2123,34.6283],[135.2411,34.6372],[135.2162,34.6414],[135.2123,34.6283]]],[[[134.7871,34.4272],[134.7292,34.3296],[134.6863,34.3305],[134.6543,34.2943],[134.6746,34.2571],[134.6577,34.2413],[134.7214,34.2549],[134.6997,34.2209],[134.7304,34.2066],[134.7293,34.1889],[134.7957,34.1993],[134.9519,34.2671],[134.8952,34.3443],[134.8947,34.4181],[135.0254,34.5763],[135.0024,34.609],[134.8798,34.5239],[134.7871,34.4272]]],[[[134.5914,34.2144],[134.6151,34.232],[134.6124,34.2504],[134.5928,34.2413],[134.5914,34.2144]]],[[[134.6218,34.1858],[134.6421,34.2395],[134.616,34.2315],[134.6218,34.2119],[134.5876,34.207],[134.6218,34.1858]]],[[[134.4968,33.6301],[134.5037,33.6407],[134.4847,33.6449],[134.4968,33.6301]]]]},"properties":{"region":"izayoi","regionLabel":"Izayoi"}},
{"type":"Feature","geometry":{"type":"MultiPolygon","coordinates":[[[[148.3427,45.2912],[148.1705,45.2595],[148.0407,45.2673],[148.0091,45.2923],[147.9649,45.4219],[147.9252,45.4379],[147.9094,45.4293],[147.8512,45.3649],[147.8687,45.2639],[147.8856,45.2582],[147.8718,45.2257],[147.8456,45.2085],[147.8206,45.2186],[147.7396,45.1955],[147.6938,45.1435],[147.699,45.1053],[147.6574,45.0817],[147.5001,45.1123],[147.5324,45.0901],[147.518,44.9986],[147.3762,44.9089],[147.2671,44.8681],[147.2371,44.8069],[147.2009,44.7979],[147.1564,44.8253],[147.1109,44.8239],[147.1166,44.7793],[147.1998,44.7532],[147.1817,44.6894],[147.0951,44.6389],[147.0092,44.6603],[147.0317,44.6161],[146.9968,44.5787],[146.9652,44.5935],[146.9495,44.6343],[146.9334,44.5865],[146.9547,44.5536],[146.8723,44.4955],[146.865,44.4461],[146.9527,44.4265],[147.0812,44.5597],[147.2058,44.5675],[147.255,44.6017],[147.3365,44.7155],[147.5863,44.8425],[147.6529,44.9199],[147.6145,44.9499],[147.6635,44.9976],[147.7277,45.0032],[147.7298,44.9804],[147.7852,44.9483],[147.8526,44.9657],[147.9076,44.9613],[147.9885,45.0065],[148.0907,45.1065],[148.3046,45.2165],[148.4944,45.2561],[148.5064,45.2791],[148.6294,45.3328],[148.7456,45.3379],[148.7813,45.3245],[148.8435,45.3396],[148.8773,45.3929],[148.8317,45.4277],[148.8311,45.4541],[148.8883,45.4843],[148.8954,45.5131],[148.8396,45.5521],[148.754,45.5571],[148.6581,45.5396],[148.6397,45.5083],[148.5775,45.4883],[148.4876,45.4199],[148.4766,45.3802],[148.4212,45.3306],[148.3427,45.2912]]],[[[141.5791,45.1769],[141.7552,44.8365],[141.7915,44.6699],[141.7874,44.5865],[141.7468,44.4328],[141.6486,44.315],[141.6628,44.0376],[141.6477,43.9448],[141.6321,43.9601],[141.6255,43.9199],[141.562,43.8601],[141.5215,43.8599],[141.4968,43.8388],[141.3879,43.8072],[141.3299,43.7253],[141.3862,43.5865],[141.3586,43.5195],[141.4286,43.4199],[141.4239,43.3289],[141.2886,43.1981],[141.1617,43.1449],[141.0112,43.1924],[141.0167,43.2396],[140.7921,43.1954],[140.777,43.2258],[140.6411,43.267],[140.6301,43.2983],[140.5805,43.3113],[140.4968,43.3735],[140.4628,43.3724],[140.4604,43.346],[140.4248,43.3297],[140.3466,43.3345],[140.36,43.3157],[140.326,43.2217],[140.3607,43.1807],[140.4302,43.143],[140.5263,43.0321],[140.5224,42.9917],[140.3905,42.9232],[140.3057,42.8288],[140.3055,42.7787],[140.2468,42.7688],[140.2349,42.7971],[140.1863,42.8278],[140.142,42.7532],[140.0743,42.7282],[140.046,42.6947],[139.897,42.6797],[139.8234,42.6138],[139.8524,42.463],[139.8292,42.3935],[139.7818,42.3539],[139.7751,42.2601],[139.8151,42.2218],[139.8812,42.2076],[139.9227,42.1335],[140.026,42.1133],[140.1328,41.9759],[140.1392,41.8951],[140.1112,41.8637],[140.1218,41.8218],[140.1046,41.8045],[140.0718,41.8057],[140.0725,41.7735],[140.009,41.6916],[139.9839,41.6065],[139.9861,41.5517],[140.0285,41.4624],[140.0891,41.4184],[140.1453,41.4291],[140.1995,41.3986],[140.2593,41.4817],[140.409,41.5173],[140.4391,41.5547],[140.445,41.6855],[140.5269,41.701],[140.6021,41.7432],[140.6411,41.8175],[140.7172,41.8067],[140.7271,41.7811],[140.7152,41.7673],[140.7023,41.7852],[140.7019,41.7414],[140.7747,41.7753],[140.8986,41.7485],[140.9678,41.7109],[141.0538,41.7272],[141.1125,41.7869],[141.1579,41.7858],[141.1864,41.8025],[141.1471,41.8322],[141.1482,41.8554],[140.9588,41.918],[140.9081,41.9846],[140.8208,42.0363],[140.7603,42.1171],[140.7069,42.1391],[140.5885,42.1093],[140.5459,42.1154],[140.3986,42.2165],[140.2869,42.2532],[140.2765,42.3112],[140.3157,42.4199],[140.3718,42.5027],[140.4685,42.5865],[140.5349,42.589],[140.5836,42.5676],[140.6427,42.5865],[140.7096,42.5839],[140.7744,42.5369],[140.7808,42.5],[140.8718,42.4609],[140.9175,42.3698],[141.0081,42.3483],[140.9808,42.3437],[140.9816,42.3244],[140.9512,42.3481],[140.931,42.3365],[141.0016,42.302],[141.125,42.4199],[141.3508,42.543],[141.4968,42.604],[141.6177,42.6243],[141.6257,42.6449],[141.696,42.6581],[141.6313,42.6286],[141.7468,42.6229],[141.8718,42.5903],[142.0293,42.4846],[142.1958,42.4474],[142.2778,42.3772],[142.3718,42.3249],[142.4465,42.3041],[142.4846,42.2713],[142.5856,42.2435],[142.6734,42.1919],[142.7621,42.1747],[142.8178,42.1415],[142.9649,42.1192],[143.0113,42.0814],[143.1364,42.0266],[143.1643,41.9831],[143.2502,41.9255],[143.2596,42.0032],[143.3124,42.0552],[143.3361,42.1906],[143.3103,42.2615],[143.3891,42.4158],[143.5977,42.6415],[143.9196,42.8748],[144.049,42.9416],[144.2701,43.0032],[144.3596,42.9997],[144.3654,42.9718],[144.4515,42.9445],[144.6322,42.9515],[144.7747,42.9336],[144.7227,42.9801],[144.7468,43.0245],[144.8001,43.0591],[144.8542,43.0497],[144.8337,43.0145],[144.8767,42.9868],[144.9744,42.9822],[145.0241,42.9997],[145.0318,43.0297],[145.0877,43.0468],[145.0887,43.0672],[145.1182,43.0813],[145.1151,43.1233],[145.1466,43.1453],[145.203,43.1367],[145.2826,43.1699],[145.4341,43.1877],[145.4869,43.1873],[145.4968,43.1593],[145.5218,43.1661],[145.5066,43.1843],[145.5303,43.1869],[145.5288,43.2047],[145.5576,43.2203],[145.5703,43.2842],[145.5899,43.2783],[145.6218,43.3166],[145.6791,43.3126],[145.813,43.3703],[145.8174,43.3861],[145.7629,43.3995],[145.7214,43.3839],[145.6507,43.3914],[145.5324,43.3145],[145.4921,43.2669],[145.3856,43.2924],[145.2753,43.4097],[145.1968,43.6251],[145.2666,43.6101],[145.2451,43.5931],[145.2874,43.602],[145.2803,43.5921],[145.3092,43.6001],[145.3319,43.5898],[145.314,43.5817],[145.3398,43.5723],[145.2813,43.5627],[145.2909,43.552],[145.3452,43.5587],[145.3415,43.5865],[145.3259,43.597],[145.1465,43.6465],[145.0684,43.7532],[145.0623,43.8075],[145.0914,43.8365],[145.0954,43.8926],[145.1447,43.9699],[145.2397,44.0587],[145.2563,44.1256],[145.3306,44.1934],[145.3668,44.2592],[145.3331,44.3459],[145.192,44.1956],[145.0159,44.1004],[144.9087,44.0041],[144.7953,43.932],[144.6218,43.9179],[144.407,43.9451],[144.2985,43.9843],[144.2888,44.0213],[144.2558,44.0406],[144.2468,44.1131],[144.1899,44.1047],[143.9004,44.154],[143.5597,44.2533],[143.3718,44.3333],[143.3489,44.3715],[142.9968,44.5579],[142.66,44.8417],[142.5888,44.9199],[142.5853,44.9617],[142.5445,44.988],[142.5051,45.0611],[142.389,45.1375],[142.1696,45.3411],[142.0509,45.4033],[141.9432,45.5225],[141.8931,45.5119],[141.8577,45.4348],[141.796,45.4077],[141.6821,45.4043],[141.6457,45.4507],[141.6547,45.3503],[141.5716,45.2354],[141.5791,45.1769]]],[[[141.0317,45.2746],[141.0572,45.3183],[141.0677,45.424],[141.0335,45.4619],[141.0364,45.4417],[141.0094,45.4343],[140.9679,45.4646],[141.0317,45.2746]]],[[[141.1497,45.2255],[141.1285,45.1863],[141.168,45.1373],[141.2291,45.1004],[141.281,45.1079],[141.3305,45.152],[141.301,45.2173],[141.1989,45.2602],[141.1497,45.2255]]],[[[145.7473,44.0647],[145.5977,43.9727],[145.5901,43.9532],[145.4841,43.9043],[145.4474,43.8562],[145.4028,43.8365],[145.4349,43.7189],[145.5465,43.7317],[145.538,43.6587],[145.5933,43.8707],[145.6538,43.9095],[145.7811,43.9326],[145.8144,44.0173],[145.8422,44.0329],[145.8785,44.0213],[145.8637,44.0532],[145.9245,44.1373],[146.0458,44.1839],[146.0693,44.2347],[146.1156,44.2652],[146.2995,44.2778],[146.3678,44.3193],[146.3811,44.3527],[146.4345,44.3767],[146.4908,44.3545],[146.5348,44.3804],[146.5776,44.4558],[146.4968,44.4255],[146.3332,44.4189],[146.25,44.4467],[146.1743,44.5158],[146.129,44.5091],[146.0073,44.3817],[145.9924,44.3247],[145.8845,44.2463],[145.7437,44.1038],[145.7473,44.0647]]],[[[141.4241,44.4289],[141.4259,44.4474],[141.382,44.4339],[141.4241,44.4289]]],[[[141.2948,44.4138],[141.3208,44.417],[141.3274,44.4435],[141.2948,44.4138]]],[[[146.6455,43.7027],[146.6762,43.7082],[146.6899,43.7229],[146.6818,43.7308],[146.6974,43.7466],[146.7269,43.7347],[146.7716,43.7669],[146.7884,43.7596],[146.8115,43.7919],[146.8514,43.7879],[146.8287,43.7961],[146.8406,43.8097],[146.8992,43.8067],[146.9146,43.8484],[146.8258,43.89],[146.826,43.8689],[146.7882,43.8785],[146.8006,43.86],[146.7738,43.8759],[146.7253,43.8473],[146.7487,43.8191],[146.6995,43.8319],[146.5863,43.8083],[146.6079,43.7697],[146.5864,43.7443],[146.6128,43.7354],[146.6077,43.7532],[146.6261,43.7575],[146.6455,43.7027]]],[[[146.6973,43.7214],[146.7065,43.7299],[146.6854,43.7319],[146.6973,43.7214]]],[[[146.3577,43.6187],[146.3508,43.6407],[146.3158,43.6512],[146.2703,43.6289],[146.3577,43.6187]]],[[[146.1164,43.4587],[146.1945,43.4894],[146.1804,43.5049],[146.2082,43.5342],[146.1314,43.5489],[146.0607,43.5232],[146.1067,43.4915],[146.1164,43.4587]]],[[[145.8982,43.4169],[145.9536,43.4253],[145.9332,43.4381],[145.9485,43.4559],[145.8606,43.4565],[145.8916,43.4481],[145.8982,43.4169]]],[[[146.0437,43.4027],[146.1089,43.4316],[146.0986,43.4496],[146.0867,43.4279],[146.0294,43.4199],[146.0437,43.4027]]],[[[145.9984,43.3621],[146.0219,43.3793],[145.9878,43.3737],[145.9984,43.3621]]],[[[145.1272,43.0683],[145.1736,43.0768],[145.1205,43.0817],[145.1272,43.0683]]],[[[139.4503,42.0521],[139.5036,42.0966],[139.5173,42.177],[139.5607,42.2289],[139.5591,42.2532],[139.5355,42.2339],[139.439,42.2175],[139.407,42.1801],[139.4221,42.0718],[139.4503,42.0521]]],[[[139.3408,41.4957],[139.3838,41.5097],[139.3741,41.524],[139.3408,41.5258],[139.3408,41.4957]]]]},"properties":{"region":"ezochi","regionLabel":"Ezochi"}},
{"type":"Feature","geometry":{"type":"MultiPolygon","coordinates":[[[[140.0259,40.3395],[140.0001,40.2203],[140.0146,40.2185],[139.9865,40.2017],[139.953,40.0865],[139.8883,40.0029],[139.8133,39.9592],[139.7236,39.9822],[139.7007,40.0074],[139.6931,39.996],[139.7214,39.9526],[139.7063,39.9285],[139.7553,39.8571],[139.8502,39.8635],[139.8589,39.8962],[139.9209,39.9011],[139.9968,39.857],[140.0342,39.8049],[140.0383,39.7652],[140.0496,39.7738],[140.0609,39.6085],[140.0256,39.4199],[139.9805,39.3135],[139.9168,39.2763],[139.8942,39.2148],[139.9015,39.1699],[139.8698,39.1186],[139.8718,39.0687],[139.819,38.9609],[139.8354,38.9565],[139.8117,38.9451],[139.7617,38.8005],[139.6982,38.7302],[139.6149,38.6747],[139.5482,38.5534],[139.4574,38.3965],[139.4504,38.2389],[139.3718,38.106],[139.2305,37.9946],[139.0696,37.9523],[138.8402,37.8142],[138.7468,37.604],[138.6172,37.4837],[138.554,37.3783],[138.4363,37.3241],[138.2495,37.1825],[138.255,37.2075],[138.2468,37.1815],[138.2163,37.1699],[138.149,37.1621],[138.1017,37.1744],[138.051,37.1303],[137.909,37.06],[137.6349,36.9803],[137.4351,36.9305],[137.4095,36.8967],[137.4187,36.8768],[137.3922,36.8066],[137.302,36.7581],[137.18,36.7577],[137.1218,36.7797],[137.1341,36.7601],[137.1112,36.7621],[137.092,36.7706],[137.1133,36.7816],[137.0825,36.7851],[137.0073,36.8365],[136.9837,36.8728],[137.0516,36.9595],[137.0574,37.1081],[137.0227,37.1014],[136.9839,37.0486],[136.9154,37.0909],[136.8877,37.0686],[136.8585,37.0727],[136.8713,37.0865],[136.859,37.1063],[136.8927,37.1113],[136.8996,37.1375],[136.8728,37.1447],[136.9071,37.2035],[136.9293,37.2066],[136.9064,37.2179],[136.96,37.2367],[136.946,37.2163],[137.0105,37.1835],[137.0335,37.1957],[137.0254,37.2049],[137.0688,37.2181],[137.0989,37.2791],[137.1529,37.2953],[137.1509,37.3069],[137.2344,37.298],[137.2676,37.3365],[137.2525,37.3407],[137.2672,37.3561],[137.2388,37.3735],[137.2568,37.4318],[137.3605,37.4518],[137.3275,37.5296],[137.2748,37.5335],[137.146,37.4996],[137.0291,37.433],[136.9243,37.3953],[136.8482,37.4021],[136.7378,37.348],[136.7216,37.3213],[136.7349,37.2862],[136.68,37.2064],[136.6701,37.1491],[136.6845,37.1359],[136.7099,37.1492],[136.727,37.1339],[136.7226,37.0557],[136.7434,37.0123],[136.7674,37.0016],[136.7474,36.8365],[136.6691,36.7013],[136.5745,36.5865],[136.4158,36.4199],[136.3479,36.3671],[136.2993,36.3519],[136.2437,36.2956],[136.1726,36.2532],[136.1232,36.2493],[136.1293,36.1919],[136.1124,36.2053],[136.095,36.1568],[136.0282,36.0958],[136.0108,36.0341],[135.9575,35.9816],[135.9968,35.9355],[135.9944,35.8879],[136.1,35.7771],[136.0737,35.6625],[136.0436,35.6587],[136.025,35.6806],[136.0429,35.7059],[136.0169,35.7639],[135.9539,35.7205],[135.9757,35.696],[135.9636,35.6563],[135.9801,35.6299],[135.8658,35.6086],[135.845,35.6357],[135.8143,35.6423],[135.8557,35.5917],[135.8393,35.5632],[135.8011,35.5713],[135.8336,35.5363],[135.7979,35.5251],[135.7646,35.5568],[135.7574,35.543],[135.7486,35.5665],[135.7132,35.569],[135.6888,35.5496],[135.7169,35.5401],[135.7183,35.5202],[135.7639,35.5361],[135.7181,35.4843],[135.5807,35.4899],[135.6264,35.4892],[135.6419,35.5081],[135.6282,35.5219],[135.6689,35.5252],[135.6609,35.5476],[135.5756,35.4932],[135.5342,35.4889],[135.5082,35.5032],[135.5177,35.5499],[135.4999,35.554],[135.5012,35.5238],[135.4685,35.5299],[135.4865,35.558],[135.449,35.5235],[135.4748,35.5049],[135.4591,35.4675],[135.4958,35.4251],[135.5253,35.4207],[135.5285,35.3797],[135.6419,35.3668],[135.7007,35.3437],[135.7684,35.3561],[135.7905,35.3867],[135.8071,35.3853],[135.8151,35.4131],[135.8528,35.4115],[135.8616,35.3951],[135.8904,35.4038],[135.9398,35.5204],[135.9815,35.4868],[136.0059,35.4916],[136.0261,35.5296],[136.0699,35.5266],[136.0831,35.5404],[136.1051,35.5288],[136.1133,35.5829],[136.1685,35.5655],[136.1767,35.5961],[136.1342,35.6699],[136.15,35.6978],[136.185,35.7037],[136.2806,35.6587],[136.2887,35.6203],[136.3233,35.6163],[136.3178,35.5469],[136.3457,35.536],[136.3718,35.5597],[136.4002,35.5299],[136.3872,35.4879],[136.4197,35.4665],[136.4115,35.4186],[136.4441,35.3895],[136.4134,35.3713],[136.3965,35.2574],[136.3781,35.2427],[136.4149,35.2177],[136.4083,35.1872],[136.4543,35.1616],[136.436,35.1301],[136.4412,35.0651],[136.4182,35.0484],[136.4143,34.9796],[136.373,34.9418],[136.3656,34.9049],[136.2503,34.8578],[136.1794,34.8865],[136.1308,34.8831],[136.1106,34.9019],[136.0852,34.8777],[136.1266,34.8618],[136.0857,34.8375],[136.0903,34.8139],[136.0218,34.7915],[136.0285,34.7572],[136.0552,34.7384],[136.07,34.7137],[136.0533,34.7051],[136.0855,34.6763],[136.0635,34.6521],[136.0403,34.6633],[136.0725,34.6366],[136.0495,34.5801],[136.1142,34.5459],[136.1556,34.5587],[136.1671,34.52],[136.2163,34.5281],[136.229,34.4941],[136.2059,34.4485],[136.0958,34.4352],[136.0687,34.3935],[136.1292,34.3159],[136.0947,34.301],[136.1311,34.2517],[136.0926,34.19],[136.1086,34.1843],[136.099,34.1187],[136.1182,34.0822],[136.0927,34.0826],[136.1033,34.0255],[136.0377,34.0403],[136.0032,34.0097],[136.011,33.9662],[135.9991,33.9556],[135.9766,33.9664],[135.9686,33.929],[135.9278,33.9409],[135.9177,33.9222],[135.9323,33.9167],[135.9086,33.9184],[135.8804,33.9091],[135.8838,33.8864],[135.9013,33.8835],[135.8744,33.8615],[135.8576,33.8729],[135.8563,33.818],[135.89,33.8019],[135.9071,33.7667],[135.937,33.7575],[135.9533,33.7286],[135.9762,33.7233],[135.9835,33.736],[136.0113,33.7235],[136.0879,33.8721],[136.1178,33.8988],[136.1302,33.8849],[136.148,33.8972],[136.1507,33.9309],[136.1797,33.9134],[136.1983,33.9199],[136.1803,33.9378],[136.2007,33.9445],[136.2135,33.9316],[136.2315,33.9474],[136.2217,33.9738],[136.192,33.9717],[136.2151,33.9839],[136.2108,33.9996],[136.2525,33.9842],[136.2384,33.9694],[136.2715,33.9731],[136.2574,33.9979],[136.2717,34.005],[136.2428,34.0146],[136.2821,34.0196],[136.244,34.0387],[136.2517,34.0616],[136.2085,34.0629],[136.2019,34.0769],[136.2362,34.0865],[136.2272,34.1],[136.2684,34.1288],[136.2492,34.0947],[136.273,34.1021],[136.2671,34.0815],[136.2911,34.0969],[136.2975,34.0865],[136.3153,34.1145],[136.2854,34.117],[136.2783,34.1616],[136.332,34.1803],[136.3368,34.197],[136.3219,34.1959],[136.3533,34.2116],[136.3621,34.1887],[136.3838,34.2165],[136.3998,34.219],[136.3988,34.2028],[136.4511,34.2197],[136.4408,34.2478],[136.4662,34.2567],[136.4634,34.2318],[136.4816,34.2197],[136.5083,34.2296],[136.4844,34.2395],[136.5042,34.2437],[136.501,34.2585],[136.5175,34.2385],[136.5041,34.2777],[136.5305,34.2731],[136.5267,34.2593],[136.5404,34.2774],[136.5483,34.25],[136.5481,34.2817],[136.5907,34.2946],[136.595,34.2813],[136.5718,34.275],[136.6048,34.2583],[136.6769,34.3165],[136.6377,34.3083],[136.6724,34.3246],[136.6598,34.3453],[136.6908,34.345],[136.6823,34.3238],[136.693,34.3482],[136.727,34.3422],[136.7089,34.3173],[136.6992,34.3254],[136.6867,34.2846],[136.7237,34.3041],[136.7637,34.2922],[136.7616,34.3155],[136.792,34.2881],[136.8107,34.2972],[136.7923,34.3091],[136.8052,34.3277],[136.8048,34.3089],[136.8478,34.3133],[136.8273,34.301],[136.8666,34.2865],[136.8338,34.2914],[136.8334,34.2706],[136.8453,34.2808],[136.8625,34.2701],[136.8351,34.2591],[136.7843,34.2782],[136.752,34.2725],[136.766,34.2604],[136.8474,34.2465],[136.8695,34.273],[136.8998,34.2761],[136.8779,34.3365],[136.9082,34.3653],[136.8654,34.3429],[136.8643,34.3636],[136.8511,34.3561],[136.8459,34.3697],[136.8253,34.3528],[136.8133,34.3676],[136.8333,34.3614],[136.8468,34.3719],[136.8572,34.3635],[136.8879,34.3921],[136.9125,34.3759],[136.9233,34.445],[136.8965,34.4535],[136.8756,34.4286],[136.8773,34.4739],[136.8488,34.4717],[136.8309,34.5061],[136.8157,34.4851],[136.8097,34.5081],[136.7769,34.5088],[136.6649,34.5591],[136.6427,34.5909],[136.5279,34.6109],[136.5571,34.6714],[136.5239,34.6793],[136.5337,34.7532],[136.6249,34.8688],[136.6471,34.9349],[136.6666,34.9369],[136.6332,34.9499],[136.6514,34.9931],[136.7491,35.037],[136.7704,35.0214],[136.7938,35.0149],[136.7804,35.0335],[136.8003,35.0297],[136.7967,35.0515],[136.8168,35.0515],[136.8121,35.0256],[136.8384,35.0309],[136.8317,35.0647],[136.8183,35.0633],[136.8281,35.0827],[136.8494,35.0779],[136.8458,35.034],[136.8672,35.093],[136.8919,35.0917],[136.8518,35.0162],[136.8696,35.0083],[136.8456,35.0079],[136.8202,34.9662],[136.8211,34.8837],[136.8377,34.8843],[136.8663,34.8365],[136.8398,34.7639],[136.9297,34.7029],[136.9761,34.7017],[136.9631,34.7347],[136.9143,34.7709],[136.9279,34.8655],[136.9639,34.8765],[136.9808,34.9593],[136.9836,34.8933],[136.9485,34.8264],[136.9968,34.8161],[137.0273,34.7773],[137.1682,34.7876],[137.1751,34.7656],[137.2161,34.8229],[137.2509,34.8055],[137.2979,34.8105],[137.3112,34.8037],[137.3305,34.7806],[137.3203,34.7326],[137.3515,34.7274],[137.3082,34.7248],[137.3096,34.7006],[137.325,34.7022],[137.3069,34.6784],[137.2846,34.6789],[137.3008,34.6937],[137.3008,34.7278],[137.2847,34.7309],[137.2608,34.6958],[137.2456,34.7061],[137.224,34.6759],[137.1309,34.6559],[137.14,34.6452],[137.1185,34.6348],[137.074,34.6623],[137.0175,34.5783],[137.1443,34.5904],[137.4839,34.6738],[137.5855,34.6789],[137.7468,34.657],[137.7444,34.6677],[137.7986,34.6447],[137.9015,34.6671],[138.0566,34.6479],[138.0631,34.6577],[138.0614,34.6466],[138.2267,34.5946],[138.1942,34.6376],[138.1976,34.6699],[138.2268,34.7273],[138.3006,34.7709],[138.2892,34.7817],[138.3387,34.8326],[138.3242,34.8697],[138.3573,34.9151],[138.5148,34.9835],[138.5332,35.0131],[138.5041,35.0153],[138.5029,34.9859],[138.494,35.032],[138.533,35.0553],[138.5564,35.1015],[138.6393,35.1149],[138.6956,35.1447],[138.8278,35.107],[138.8871,35.0465],[138.9063,35.0479],[138.8896,35.0173],[138.7874,35.0302],[138.7766,34.9705],[138.7632,34.9751],[138.7897,34.908],[138.7561,34.8845],[138.7753,34.8563],[138.7528,34.7999],[138.7756,34.7517],[138.7391,34.7262],[138.7392,34.6899],[138.7883,34.6696],[138.778,34.6397],[138.8436,34.6011],[138.9048,34.6289],[138.9478,34.6737],[138.9635,34.6725],[138.9571,34.654],[138.9872,34.6579],[138.9734,34.6907],[138.9975,34.7425],[139.0478,34.7677],[139.0825,34.8521],[139.1405,34.8907],[139.1452,34.9558],[139.0957,34.9756],[139.0835,35.0032],[139.0984,35.0075],[139.0995,35.0461],[139.0687,35.0568],[139.1115,35.1413],[139.161,35.141],[139.1419,35.1527],[139.1435,35.2327],[139.2108,35.2781],[139.3301,35.3121],[139.438,35.3189],[139.4765,35.3115],[139.4777,35.2975],[139.5355,35.3088],[139.5693,35.2937],[139.5764,35.2532],[139.6275,35.2155],[139.5998,35.1948],[139.6268,35.1628],[139.6107,35.1629],[139.6109,35.141],[139.678,35.1393],[139.6565,35.185],[139.725,35.2119],[139.7176,35.2471],[139.7466,35.2532],[139.691,35.2673],[139.6718,35.3009],[139.6606,35.2831],[139.634,35.2951],[139.6608,35.3281],[139.6225,35.332],[139.657,35.3416],[139.6565,35.3727],[139.6221,35.396],[139.6455,35.4029],[139.6318,35.4105],[139.6697,35.4027],[139.6907,35.4392],[139.6755,35.4315],[139.6743,35.4496],[139.6603,35.4412],[139.6322,35.466],[139.6819,35.4732],[139.6885,35.4952],[139.6963,35.4839],[139.7228,35.5083],[139.7203,35.4943],[139.7318,35.4995],[139.725,35.5169],[139.7339,35.5005],[139.7514,35.5237],[139.7649,35.5116],[139.752,35.5331],[139.7763,35.5095],[139.7942,35.5118],[139.7898,35.5267],[139.8087,35.5384],[139.7855,35.5705],[139.7543,35.5616],[139.7441,35.5894],[139.7616,35.6526],[139.7895,35.6569],[139.7767,35.6422],[139.7956,35.6498],[139.7788,35.6375],[139.7986,35.6219],[139.8065,35.6406],[139.8729,35.6385],[139.8977,35.6167],[139.8975,35.6294],[139.9396,35.6411],[139.9183,35.6555],[139.9475,35.6699],[139.9314,35.6745],[139.9848,35.6919],[139.986,35.6639],[140.003,35.6598],[139.9877,35.6546],[140.0137,35.6575],[140.0839,35.5967],[140.083,35.6139],[140.1005,35.6045],[140.089,35.5945],[140.1182,35.5957],[140.114,35.5723],[140.0817,35.5883],[140.0862,35.5693],[140.1271,35.5675],[140.091,35.5645],[140.1156,35.5505],[140.0883,35.5519],[140.0962,35.5353],[140.0614,35.5437],[140.0251,35.5015],[140.036,35.4953],[140.0112,35.484],[140.0228,35.4675],[140.0065,35.4791],[139.9904,35.452],[139.9822,35.4747],[139.9657,35.4685],[139.9744,35.4484],[139.9511,35.4559],[139.9486,35.4422],[139.9052,35.432],[139.8978,35.4091],[139.9189,35.3884],[139.8883,35.37],[139.8969,35.3583],[139.8454,35.3747],[139.8564,35.3514],[139.8381,35.3589],[139.8231,35.3443],[139.8391,35.3337],[139.8193,35.3163],[139.7805,35.315],[139.8419,35.2941],[139.8698,35.2349],[139.8169,35.1773],[139.8391,35.1293],[139.8244,35.1008],[139.8423,35.0865],[139.8212,35.072],[139.8321,35.0439],[139.8107,35.0392],[139.8506,35.0248],[139.8582,35.0032],[139.8482,34.9852],[139.7539,34.9777],[139.7536,34.9669],[139.8116,34.9431],[139.8371,34.9032],[139.8879,34.8995],[139.9561,34.9312],[139.9815,35.0113],[140.0842,35.0631],[140.1218,35.1155],[140.1925,35.1268],[140.2019,35.1097],[140.2336,35.1155],[140.2989,35.1509],[140.3117,35.1343],[140.3514,35.1814],[140.3775,35.181],[140.4148,35.3069],[140.395,35.3365],[140.3972,35.4187],[140.4689,35.5475],[140.6554,35.6882],[140.8308,35.7135],[140.8655,35.6934],[140.869,35.736],[140.8519,35.7439],[140.7071,35.925],[140.6773,35.912],[140.6908,35.8829],[140.6748,35.897],[140.6629,35.9286],[140.6784,35.9199],[140.7011,35.9377],[140.61,36.0865],[140.5597,36.2558],[140.5659,36.3047],[140.588,36.3107],[140.6268,36.3813],[140.6097,36.4053],[140.6082,36.4312],[140.6269,36.4312],[140.6081,36.4403],[140.6117,36.4871],[140.7164,36.6624],[140.7468,36.7807],[140.7705,36.8199],[140.8062,36.8313],[140.7936,36.8596],[140.8178,36.9087],[140.8963,36.9433],[140.9207,36.9343],[140.9695,36.9742],[141.0063,37.2125],[141.0284,37.2377],[141.0124,37.241],[141.0391,37.3639],[141.0279,37.6671],[140.9866,37.8241],[140.9597,37.8316],[140.9312,37.8963],[140.9145,37.9937],[140.9417,38.1319],[140.9952,38.23],[141.0241,38.2653],[141.0468,38.2651],[140.9991,38.2733],[141.0285,38.2826],[141.041,38.2721],[141.0899,38.3014],[141.0766,38.3199],[141.0361,38.3072],[141.0449,38.3193],[141.0251,38.3201],[141.0524,38.3334],[141.0388,38.344],[141.0664,38.3515],[141.0764,38.3787],[141.1333,38.3775],[141.1531,38.3566],[141.133,38.3406],[141.1387,38.3221],[141.1498,38.334],[141.1779,38.3204],[141.1606,38.3653],[141.2666,38.4199],[141.3589,38.4138],[141.3741,38.3837],[141.4312,38.3995],[141.4332,38.3736],[141.4588,38.3743],[141.418,38.3473],[141.4627,38.3515],[141.4748,38.3308],[141.4496,38.3157],[141.4968,38.3055],[141.5242,38.2719],[141.5338,38.3413],[141.5145,38.371],[141.4825,38.3769],[141.5101,38.3909],[141.5303,38.3821],[141.5388,38.4],[141.5141,38.3931],[141.5018,38.4158],[141.4724,38.3941],[141.4752,38.4199],[141.4476,38.4415],[141.4938,38.4375],[141.5126,38.4508],[141.4766,38.4641],[141.4968,38.4961],[141.4705,38.5215],[141.5137,38.5132],[141.5244,38.4895],[141.5427,38.5032],[141.5322,38.5491],[141.4968,38.5326],[141.46,38.5763],[141.5251,38.6106],[141.5294,38.6374],[141.4447,38.6432],[141.4448,38.6738],[141.4943,38.6741],[141.4906,38.69],[141.5107,38.6853],[141.5256,38.7167],[141.5609,38.6905],[141.5642,38.7405],[141.5461,38.7334],[141.5165,38.7718],[141.522,38.7891],[141.6034,38.8278],[141.5754,38.9059],[141.6055,38.8803],[141.6377,38.9019],[141.6743,38.8572],[141.6322,38.971],[141.5681,38.9957],[141.491,38.9985],[141.4916,38.9159],[141.4514,38.8767],[141.4663,38.8572],[141.4589,38.8148],[141.4297,38.8109],[141.4383,38.7833],[141.4107,38.7681],[141.3945,38.7997],[141.3104,38.8227],[141.3035,38.7933],[141.2736,38.7969],[141.2348,38.7484],[141.1812,38.7848],[141.1483,38.7846],[141.1407,38.8139],[141.1059,38.8232],[141.1051,38.8377],[141.1463,38.8559],[141.1401,38.8779],[141.0939,38.8881],[140.9865,38.8755],[140.958,38.9085],[140.8814,38.9291],[140.8262,38.9635],[140.7739,38.9585],[140.7645,39.0001],[140.8103,39.0574],[140.8024,39.0778],[140.7529,39.0865],[140.7702,39.1244],[140.7496,39.1397],[140.8085,39.1803],[140.7657,39.1977],[140.7888,39.238],[140.7182,39.2729],[140.7179,39.2965],[140.6933,39.3025],[140.7042,39.343],[140.6541,39.3909],[140.6586,39.4157],[140.6834,39.4222],[140.6831,39.4575],[140.7243,39.4807],[140.7307,39.5661],[140.7957,39.6033],[140.8219,39.6498],[140.8229,39.6882],[140.7749,39.7349],[140.8478,39.7961],[140.787,39.8238],[140.783,39.8657],[140.8261,39.8867],[140.8527,39.8665],[140.8781,39.8747],[140.8465,39.9745],[140.8447,40.0737],[140.8457,40.0748],[140.8323,40.0929],[140.809,40.1131],[140.7858,40.1544],[140.7625,40.2265],[140.7393,40.2883],[140.716,40.2856],[140.6928,40.2155],[140.6695,40.1363],[140.6463,40.1093],[140.623,40.1398],[140.5998,40.1822],[140.5765,40.1943],[140.5533,40.1731],[140.53,40.1402],[140.5068,40.1102],[140.4835,40.0856],[140.4603,40.0726],[140.437,40.0821],[140.4138,40.1094],[140.3906,40.1281],[140.3673,40.1156],[140.3441,40.0791],[140.3208,40.0437],[140.2976,40.0153],[140.2743,39.9718],[140.2511,39.9017],[140.2278,39.8383],[140.2046,39.8373],[140.1813,39.9146],[140.1581,40.0208],[140.1348,40.0884],[140.1116,40.0991],[140.0883,40.0942],[140.0651,40.1204],[140.0418,40.1787],[140.0186,40.2338],[140.0061,40.2479],[140.0259,40.3395]]],[[[141.6252,38.8307],[141.6379,38.841],[141.624,38.8857],[141.6028,38.8727],[141.6252,38.8307]]],[[[141.1102,38.3313],[141.121,38.3451],[141.104,38.3429],[141.1102,38.3313]]],[[[141.5744,38.2693],[141.5899,38.3024],[141.5673,38.3139],[141.548,38.3027],[141.5744,38.2693]]],[[[141.4091,38.2855],[141.43,38.2933],[141.4163,38.3128],[141.4091,38.2855]]],[[[141.502,38.2464],[141.4607,38.2837],[141.4579,38.2683],[141.502,38.2464]]],[[[140.7114,35.9405],[140.7106,35.9268],[140.7125,35.9547],[140.7114,35.9405]]],[[[139.5441,39.1819],[139.5641,39.1975],[139.5498,39.2085],[139.5441,39.1819]]],[[[139.7687,35.6265],[139.787,35.6021],[139.777,35.636],[139.7687,35.6265]]],[[[139.7495,35.5889],[139.7559,35.5772],[139.787,35.5804],[139.7704,35.5812],[139.753,35.6177],[139.7495,35.5889]]],[[[139.7656,35.5649],[139.7737,35.5745],[139.7577,35.5743],[139.7656,35.5649]]],[[[139.4388,34.6786],[139.4496,34.7153],[139.4345,34.7703],[139.3603,34.7988],[139.3595,34.7017],[139.4388,34.6786]]],[[[139.2753,34.5111],[139.2931,34.5242],[139.2808,34.5344],[139.2753,34.5111]]],[[[139.2725,34.3299],[139.291,34.4083],[139.2785,34.4309],[139.2426,34.3623],[139.2725,34.3299]]],[[[139.2134,34.3163],[139.2265,34.3269],[139.212,34.3365],[139.1949,34.3211],[139.2134,34.3163]]],[[[139.129,34.1851],[139.1754,34.205],[139.1694,34.232],[139.1416,34.2435],[139.129,34.1851]]],[[[139.5021,34.0454],[139.5624,34.0685],[139.5649,34.1021],[139.5388,34.1237],[139.4914,34.1172],[139.4731,34.0765],[139.5021,34.0454]]],[[[139.6208,33.852],[139.6321,33.8698],[139.6002,33.9007],[139.5778,33.8625],[139.6208,33.852]]],[[[139.8322,33.0461],[139.8404,33.0753],[139.8581,33.0785],[139.8464,33.1164],[139.8177,33.1196],[139.7714,33.158],[139.7468,33.1559],[139.7548,33.1044],[139.8322,33.0461]]],[[[139.7692,32.442],[139.7798,32.4576],[139.7577,32.4723],[139.7692,32.442]]],[[[140.2986,30.4723],[140.3142,30.4855],[140.3045,30.4955],[140.2865,30.4827],[140.2986,30.4723]]],[[[142.1461,27.6699],[142.1425,27.6871],[142.1251,27.6851],[142.1461,27.6699]]],[[[142.1888,27.144],[142.2015,27.1652],[142.1884,27.1883],[142.1888,27.144]]],[[[142.22,27.1081],[142.2349,27.1133],[142.1904,27.1427],[142.1876,27.1203],[142.22,27.1081]]],[[[142.2207,27.0353],[142.2224,27.0529],[142.237,27.0485],[142.2323,27.0773],[142.2179,27.0999],[142.1862,27.1043],[142.1862,27.088],[142.2009,27.0983],[142.2073,27.0847],[142.1829,27.074],[142.1847,27.042],[142.2207,27.0353]]],[[[142.1789,26.6069],[142.1721,26.6429],[142.1878,26.6586],[142.1635,26.662],[142.1676,26.6888],[142.1465,26.6853],[142.1637,26.7019],[142.1337,26.6988],[142.1245,26.7134],[142.1789,26.6069]]],[[[141.2782,25.4177],[141.2931,25.4262],[141.2816,25.4477],[141.2782,25.4177]]],[[[141.2862,24.7452],[141.3437,24.7754],[141.3289,24.8117],[141.2869,24.7895],[141.2862,24.7452]]],[[[153.9855,24.2809],[153.9841,24.2977],[153.9706,24.2847],[153.9855,24.2809]]],[[[141.4601,24.2252],[141.4728,24.238],[141.4619,24.2451],[141.4601,24.2252]]],[[[139.2224,38.4369],[139.2651,38.4887],[139.2247,38.4653],[139.2224,38.4369]]],[[[138.2449,37.8027],[138.3549,37.8298],[138.4703,37.8971],[138.5464,38.0083],[138.5735,38.0635],[138.5624,38.0881],[138.4821,38.0624],[138.4349,38.0865],[138.4505,38.1475],[138.4928,38.204],[138.5146,38.3325],[138.4589,38.3214],[138.439,38.2655],[138.3251,38.1987],[138.2423,38.0875],[138.2286,37.9795],[138.2549,37.965],[138.2744,38.0032],[138.3014,38.007],[138.3431,37.9645],[138.2849,37.9199],[138.2722,37.8519],[138.206,37.8281],[138.2449,37.8027]]],[[[139.7456,35.4849],[139.7785,35.5044],[139.7363,35.4944],[139.7456,35.4849]]],[[[139.7146,35.4859],[139.7002,35.4786],[139.7127,35.4641],[139.7419,35.477],[139.7345,35.4947],[139.7146,35.4859]]],[[[139.6956,35.4496],[139.6925,35.472],[139.6727,35.4652],[139.6956,35.4496]]],[[[136.8119,34.9961],[136.8217,35.0176],[136.8004,35.0036],[136.8119,34.9961]]],[[[136.8086,34.8393],[136.8241,34.8512],[136.8041,34.8779],[136.8086,34.8393]]],[[[137.3063,34.7847],[137.3244,34.7869],[137.3154,34.7963],[137.3033,34.7929],[137.3063,34.7847]]],[[[136.6657,34.9729],[136.6747,35.0024],[136.6528,34.9918],[136.6657,34.9729]]],[[[136.8586,34.506],[136.9042,34.5203],[136.8998,34.5377],[136.8667,34.5279],[136.8788,34.5263],[136.8471,34.5101],[136.8586,34.506]]],[[[136.8863,34.4766],[136.9084,34.5029],[136.8757,34.4921],[136.8863,34.4766]]],[[[136.9464,37.0915],[136.9968,37.1197],[137.0498,37.1234],[137.0443,37.1639],[137,37.1355],[136.967,37.1551],[136.9757,37.1403],[136.9408,37.1464],[136.9242,37.1309],[136.9262,37.1447],[136.9013,37.152],[136.9464,37.0915]]]]},"properties":{"region":"ogon","regionLabel":"Ogon"}},
{"type":"Feature","geometry":{"type":"MultiPolygon","coordinates":[[[[134.3213,34.7218],[134.314,34.7405],[134.3338,34.7682],[134.3165,34.8016],[134.2874,34.8277],[134.2632,34.8267],[134.2531,34.8513],[134.2629,34.8849],[134.2944,34.9075],[134.2543,34.9377],[134.2861,34.9959],[134.2641,35.0157],[134.2829,35.038],[134.3161,35.0433],[134.3185,35.0829],[134.3486,35.0903],[134.3663,35.1454],[134.4082,35.1479],[134.4114,35.1861],[134.38,35.2081],[134.4022,35.241],[134.4624,35.2367],[134.5146,35.2773],[134.5133,35.3539],[134.4722,35.378],[134.4795,35.4253],[134.4398,35.4428],[134.4299,35.5032],[134.4123,35.5153],[134.4208,35.5629],[134.3695,35.6146],[134.2949,35.5899],[134.2672,35.5587],[134.1367,35.5291],[134.0318,35.5187],[134.0073,35.5379],[133.9357,35.5128],[133.7716,35.5007],[133.567,35.5303],[133.4456,35.494],[133.4248,35.4602],[133.3932,35.4535],[133.2876,35.4812],[133.2441,35.5352],[133.2648,35.5516],[133.2441,35.5491],[133.3251,35.5683],[133.2165,35.5815],[133.2096,35.5673],[133.1919,35.5801],[133.1922,35.5632],[133.1597,35.5716],[133.1512,35.5595],[133.0889,35.6037],[133.0958,35.5783],[133.0478,35.5785],[133.0576,35.5635],[133.031,35.5578],[133.0265,35.5389],[132.9687,35.5438],[132.9655,35.5148],[132.8644,35.5133],[132.7269,35.47],[132.7505,35.4475],[132.6847,35.4514],[132.6861,35.4408],[132.6287,35.4352],[132.6239,35.4179],[132.6715,35.4011],[132.6738,35.3749],[132.626,35.2873],[132.4168,35.1903],[132.381,35.1468],[132.3859,35.1287],[132.3449,35.0926],[132.3315,35.0975],[132.3085,35.0566],[132.2354,35.0346],[132.1119,34.953],[132.0647,34.9076],[132.0534,34.8717],[132.0357,34.8824],[132.007,34.8682],[132.0055,34.8465],[131.943,34.7911],[131.8641,34.7548],[131.8701,34.7324],[131.8441,34.7087],[131.7468,34.6759],[131.6899,34.681],[131.667,34.6753],[131.6488,34.6409],[131.6339,34.6639],[131.6029,34.6619],[131.589,34.6326],[131.6028,34.6242],[131.5563,34.6151],[131.5369,34.5625],[131.5033,34.5339],[131.4661,34.5385],[131.4555,34.526],[131.4613,34.4862],[131.415,34.4487],[131.3964,34.4603],[131.4217,34.441],[131.4148,34.4261],[131.3367,34.4183],[131.3052,34.3829],[131.2243,34.3928],[131.215,34.3708],[131.1972,34.3973],[131.1544,34.3725],[131.1308,34.4177],[131.019,34.4112],[130.9715,34.4419],[130.9314,34.3927],[130.9546,34.3892],[130.9584,34.4072],[131.0129,34.4048],[131.034,34.3703],[130.9998,34.3739],[130.9255,34.3417],[130.9,34.3623],[130.8967,34.3173],[130.8664,34.2873],[130.9209,34.2391],[130.9294,34.2106],[130.9253,34.1699],[130.8926,34.135],[130.8654,34.1356],[130.8597,34.1098],[130.8872,34.0662],[130.9111,34.0591],[130.917,33.9467],[130.8728,33.9487],[130.9094,33.9257],[130.904,33.9137],[130.9226,33.9145],[130.9258,33.9466],[130.9913,33.9865],[131.0369,34.057],[131.0467,34.0423],[131.0916,34.0373],[131.1347,33.9913],[131.1329,34.0032],[131.169,33.996],[131.157,33.9531],[131.1777,33.9315],[131.2091,33.9441],[131.2218,33.9337],[131.2384,33.9513],[131.2318,33.9271],[131.2518,33.9368],[131.2658,33.9228],[131.3538,33.9655],[131.3842,34.0493],[131.4033,34.0425],[131.395,34.0251],[131.4162,34.0228],[131.3953,33.9845],[131.4184,34.0155],[131.4365,33.9826],[131.4602,33.9878],[131.4495,34.0095],[131.4793,34.0117],[131.4744,34.0377],[131.539,33.9973],[131.5952,34.0431],[131.6096,34.0212],[131.635,34.0469],[131.6973,34.0473],[131.7525,34.0706],[131.7424,34.0487],[131.7969,34.0601],[131.7821,34.0303],[131.8036,34.0429],[131.8267,34.0294],[131.7612,33.9751],[131.8098,33.9677],[131.8205,33.9765],[131.7935,33.9873],[131.8318,34.0109],[131.8633,34.0066],[131.8628,33.9884],[131.9628,33.9438],[131.9699,33.9167],[131.9815,33.9291],[132.0244,33.9019],[132.0577,33.9241],[132.0441,33.9091],[132.1193,33.8754],[132.1169,33.8318],[132.1393,33.8319],[132.1579,33.856],[132.1299,33.8845],[132.1172,33.9511],[132.1841,33.9613],[132.2128,34.0032],[132.1998,34.1203],[132.2328,34.1269],[132.246,34.1481],[132.2301,34.1855],[132.2449,34.2107],[132.2199,34.2333],[132.2322,34.2573],[132.3601,34.361],[132.3628,34.3496],[132.3985,34.3651],[132.4493,34.348],[132.458,34.3637],[132.4569,34.3517],[132.5218,34.3629],[132.4911,34.3365],[132.5036,34.3365],[132.5141,34.2569],[132.5566,34.242],[132.5312,34.2213],[132.5377,34.1937],[132.5678,34.1985],[132.5958,34.2307],[132.6412,34.202],[132.6603,34.2183],[132.684,34.2108],[132.7021,34.2372],[132.7598,34.2409],[132.7721,34.2532],[132.7529,34.2605],[132.7536,34.2821],[132.7881,34.2782],[132.7966,34.311],[132.8341,34.3158],[132.8469,34.2923],[132.9127,34.3365],[132.9203,34.3257],[132.9502,34.3394],[133.0395,34.3312],[133.0791,34.3463],[133.0843,34.3955],[133.1218,34.3827],[133.2335,34.4115],[133.2513,34.4415],[133.2724,34.4135],[133.2468,34.3894],[133.281,34.4011],[133.2901,34.3834],[133.3669,34.3691],[133.3859,34.4219],[133.4392,34.4365],[133.4068,34.4586],[133.4078,34.4785],[133.4422,34.4451],[133.4463,34.4802],[133.4558,34.4598],[133.4838,34.4659],[133.4738,34.4414],[133.4893,34.4416],[133.5245,34.4524],[133.5273,34.4689],[133.4854,34.5139],[133.5404,34.4615],[133.5939,34.4695],[133.5937,34.491],[133.659,34.5205],[133.6834,34.5069],[133.6782,34.523],[133.7032,34.5401],[133.7034,34.4779],[133.7428,34.4705],[133.7184,34.4963],[133.7345,34.4985],[133.7383,34.525],[133.7873,34.4356],[133.8218,34.4297],[133.8076,34.4591],[133.8342,34.4744],[133.9333,34.4513],[133.938,34.4813],[133.9634,34.4953],[133.9594,34.5243],[133.9763,34.5339],[134.003,34.5123],[134.0013,34.5454],[134.03,34.5509],[134.0464,34.5767],[134.0329,34.5973],[133.9594,34.5837],[133.9455,34.5989],[133.9954,34.6135],[134.047,34.5977],[134.0633,34.6078],[134.0592,34.5851],[134.12,34.5891],[134.1472,34.6169],[134.1696,34.6135],[134.1868,34.6317],[134.1695,34.6517],[134.1894,34.6518],[134.2446,34.7015],[134.2353,34.7147],[134.1986,34.7088],[134.2138,34.7162],[134.1941,34.7169],[134.2039,34.7271],[134.1789,34.7331],[134.1853,34.7423],[134.2431,34.7153],[134.275,34.7345],[134.3109,34.7338],[134.3213,34.7218]]],[[[133.5979,34.0436],[133.5127,33.9701],[133.4102,33.9907],[133.356,33.9789],[133.3366,33.9919],[133.3402,33.9798],[133.3196,33.9939],[133.2696,33.9836],[133.2787,33.9739],[133.262,33.9631],[133.255,33.9806],[133.2541,33.9563],[133.2009,33.9363],[133.1331,33.9271],[133.1252,33.9414],[133.1183,33.9245],[133.1186,33.9411],[133.0923,33.9407],[133.0636,33.9737],[133.0313,34.052],[132.9408,34.142],[132.9215,34.1163],[132.8909,34.1177],[132.9261,34.1077],[132.921,34.0663],[132.8645,34.0595],[132.7648,33.9981],[132.7527,33.9093],[132.7089,33.9072],[132.698,33.8779],[132.718,33.8649],[132.6869,33.8327],[132.6985,33.7565],[132.6514,33.6966],[132.5809,33.6521],[132.4774,33.6162],[132.4172,33.5443],[132.2579,33.4735],[132.2594,33.4499],[132.2407,33.4653],[132.2233,33.4445],[132.1735,33.4468],[132.175,33.4274],[132.1558,33.4396],[132.1644,33.4111],[132.1375,33.4205],[132.1329,33.403],[132.1203,33.4199],[132.0119,33.3442],[132.0954,33.3872],[132.1197,33.3865],[132.1025,33.3619],[132.1522,33.3736],[132.1832,33.4123],[132.2798,33.4469],[132.299,33.4745],[132.3164,33.4515],[132.353,33.488],[132.3736,33.4603],[132.3906,33.4765],[132.3865,33.4596],[132.4193,33.4624],[132.3823,33.4419],[132.4149,33.4439],[132.3795,33.4161],[132.3956,33.3988],[132.378,33.3846],[132.3832,33.3617],[132.4188,33.3825],[132.4061,33.3596],[132.4193,33.3565],[132.3756,33.3365],[132.3711,33.3181],[132.4173,33.3033],[132.4312,33.3198],[132.5226,33.3149],[132.4821,33.2889],[132.4683,33.2552],[132.4811,33.2744],[132.5091,33.2591],[132.5421,33.2706],[132.5199,33.2481],[132.5595,33.2221],[132.5112,33.2131],[132.4893,33.1959],[132.5076,33.1941],[132.5146,33.1707],[132.4923,33.1837],[132.4847,33.1645],[132.481,33.1857],[132.4599,33.182],[132.4577,33.2107],[132.4461,33.2005],[132.42,33.2141],[132.4055,33.2051],[132.4212,33.2085],[132.4641,33.1711],[132.431,33.1695],[132.4407,33.1377],[132.5013,33.1304],[132.4694,33.1148],[132.4682,33.1265],[132.4461,33.1241],[132.4802,33.0982],[132.461,33.0758],[132.4779,33.084],[132.4827,33.0561],[132.4461,33.0655],[132.4317,33.0531],[132.414,33.0724],[132.3777,33.0227],[132.395,33.0131],[132.411,33.0273],[132.4086,33.0559],[132.4513,33.035],[132.4498,33.0483],[132.4813,33.0491],[132.4848,33.0101],[132.4945,33.0178],[132.5116,32.9768],[132.5534,32.9602],[132.4943,32.9639],[132.4968,32.9875],[132.4701,32.9698],[132.5023,32.9557],[132.4598,32.938],[132.4912,32.8981],[132.5265,32.9148],[132.4968,32.9173],[132.5265,32.9327],[132.5045,32.9411],[132.5139,32.9499],[132.5679,32.9294],[132.5481,32.9453],[132.6015,32.9468],[132.5856,32.9346],[132.5977,32.9126],[132.6546,32.9249],[132.7075,32.9259],[132.7202,32.8971],[132.704,32.8945],[132.7208,32.8805],[132.6954,32.8865],[132.656,32.8528],[132.6728,32.8412],[132.644,32.82],[132.6557,32.8009],[132.6261,32.7957],[132.6438,32.7869],[132.6307,32.7617],[132.7109,32.7983],[132.7564,32.7532],[132.7703,32.7617],[132.7936,32.7474],[132.8613,32.7903],[132.8688,32.7658],[132.8804,32.7897],[132.9357,32.7865],[132.9454,32.7649],[132.9691,32.7773],[132.9525,32.7642],[132.9663,32.7291],[133.0198,32.7238],[133.0011,32.7873],[132.9522,32.8127],[132.9486,32.8565],[132.9931,32.8623],[133.0087,32.8819],[132.9921,32.9517],[133.0111,33.0151],[133.0396,33.0379],[133.0937,33.0233],[133.1043,33.0725],[133.141,33.0971],[133.17,33.1502],[133.1914,33.1671],[133.2224,33.1531],[133.2097,33.1828],[133.2399,33.1969],[133.2628,33.2576],[133.2379,33.2959],[133.2603,33.3101],[133.2309,33.3235],[133.2633,33.3403],[133.2583,33.3651],[133.2939,33.3883],[133.2886,33.4053],[133.3039,33.3905],[133.2891,33.382],[133.3238,33.3775],[133.3181,33.355],[133.3426,33.3985],[133.4058,33.3973],[133.4572,33.4199],[133.4616,33.4309],[133.4159,33.4389],[133.4026,33.4145],[133.3962,33.4246],[133.3841,33.4112],[133.3718,33.425],[133.3657,33.4071],[133.3498,33.4157],[133.3692,33.4303],[133.4054,33.4323],[133.3981,33.4449],[133.4317,33.4369],[133.5739,33.4957],[133.5585,33.4983],[133.5459,33.5179],[133.5604,33.5525],[133.5711,33.5363],[133.5644,33.5008],[133.6009,33.5192],[133.7441,33.5366],[133.7686,33.5155],[133.9343,33.4866],[133.9592,33.4422],[134.0306,33.4122],[134.0387,33.3705],[134.1021,33.327],[134.1086,33.2959],[134.1492,33.2861],[134.1766,33.2435],[134.2084,33.3947],[134.3052,33.5485],[134.1927,33.5615],[134.1492,33.6291],[134.1835,33.6489],[134.1743,33.6836],[134.0575,33.6908],[134.0673,33.7262],[134.0324,33.8283],[133.9968,33.821],[133.984,33.8408],[133.9604,33.8347],[133.9409,33.7991],[133.9131,33.7915],[133.8718,33.806],[133.8386,33.8446],[133.7468,33.8368],[133.6768,33.8586],[133.6602,33.8816],[133.6891,33.9161],[133.6755,33.9263],[133.692,33.9458],[133.679,34.0124],[133.5979,34.0436]]],[[[141.6322,38.971],[141.6251,39.0011],[141.6749,39.0032],[141.6694,38.9759],[141.7057,38.9392],[141.7288,38.9529],[141.6973,38.9693],[141.7111,38.9964],[141.742,38.9859],[141.7447,38.9958],[141.7099,39.0247],[141.7231,39.0666],[141.7398,39.0575],[141.7335,39.0203],[141.7977,39.0433],[141.802,39.0246],[141.8456,39.0265],[141.8143,39.0574],[141.8755,39.0651],[141.8218,39.0773],[141.8115,39.1121],[141.8818,39.0845],[141.9218,39.1051],[141.8742,39.1161],[141.8375,39.1462],[141.9217,39.1786],[141.8666,39.1927],[141.8692,39.2072],[141.8907,39.198],[141.9259,39.2225],[141.9488,39.2183],[141.9448,39.2414],[141.9712,39.2491],[141.8922,39.2466],[141.8895,39.2742],[141.9292,39.2681],[141.8879,39.3037],[141.9779,39.3199],[141.9976,39.3522],[141.9154,39.3245],[141.8993,39.3365],[141.9156,39.3568],[141.9582,39.3577],[141.9679,39.3751],[141.9471,39.3719],[141.9393,39.387],[141.976,39.4275],[141.9868,39.4091],[142.044,39.4255],[142.0506,39.4849],[141.9791,39.4395],[141.9542,39.468],[141.9743,39.482],[142.0096,39.4765],[142.0338,39.5293],[142.0569,39.5221],[142.0726,39.5487],[142.0568,39.5749],[142.0269,39.5793],[142.0268,39.6557],[141.9475,39.5915],[141.9833,39.6476],[141.985,39.6875],[141.9686,39.6919],[141.9868,39.7235],[141.9721,39.7305],[142.0039,39.7522],[141.9887,39.7601],[142.0046,39.7761],[141.9844,39.7898],[141.9721,39.8829],[141.9404,39.9199],[141.9636,39.9535],[141.9548,39.9857],[141.8342,40.0746],[141.8312,40.1161],[141.8764,40.1445],[141.7949,40.1906],[141.8127,40.1903],[141.8008,40.2075],[141.8341,40.2205],[141.8309,40.2379],[141.7718,40.3458],[141.6831,40.4509],[141.5755,40.5433],[141.5349,40.5277],[141.4877,40.5573],[141.4158,40.7532],[141.3866,40.9307],[141.3904,41.1699],[141.4643,41.4301],[141.3718,41.3703],[141.3056,41.3515],[141.2659,41.3565],[141.1931,41.3877],[141.1131,41.4636],[141.0032,41.4862],[140.9128,41.547],[140.909,41.4951],[140.8381,41.4199],[140.7998,41.3231],[140.7652,41.1454],[140.8123,41.1285],[140.8523,41.1603],[140.9463,41.1746],[140.9817,41.1998],[141.0563,41.1834],[141.1553,41.2453],[141.1565,41.2629],[141.1343,41.2407],[141.1582,41.2772],[141.1887,41.2798],[141.2468,41.2262],[141.2785,41.1551],[141.1908,40.9199],[141.1452,40.8781],[141.1053,40.8729],[141.0643,40.9141],[140.9746,40.934],[140.9837,40.9609],[140.948,40.9933],[140.8802,41.0097],[140.8614,40.9575],[140.8383,40.9539],[140.8716,40.9457],[140.859,40.8877],[140.7953,40.8365],[140.7329,40.8317],[140.6867,40.8691],[140.6608,40.9489],[140.631,41.1925],[140.5496,41.2297],[140.465,41.1827],[140.3395,41.2605],[140.32,41.1468],[140.3006,41.131],[140.249,41.1344],[140.3194,41.0935],[140.3235,41.0458],[140.3022,40.9174],[140.251,40.802],[140.1218,40.7426],[140.0522,40.7693],[139.9996,40.7452],[139.9285,40.643],[139.9034,40.6465],[139.8606,40.614],[139.8718,40.5833],[139.9176,40.5865],[139.9417,40.5495],[139.9364,40.4287],[140.0109,40.3752],[140.0259,40.3395],[140.0061,40.2479],[140.0186,40.2338],[140.0418,40.1787],[140.0651,40.1204],[140.0883,40.0942],[140.1116,40.0991],[140.1348,40.0884],[140.1581,40.0208],[140.1813,39.9146],[140.2046,39.8373],[140.2278,39.8383],[140.2511,39.9017],[140.2743,39.9718],[140.2976,40.0153],[140.3208,40.0437],[140.3441,40.0791],[140.3673,40.1156],[140.3906,40.1281],[140.4138,40.1094],[140.437,40.0821],[140.4603,40.0726],[140.4835,40.0856],[140.5068,40.1102],[140.53,40.1402],[140.5533,40.1731],[140.5765,40.1943],[140.5998,40.1822],[140.623,40.1398],[140.6463,40.1093],[140.6695,40.1363],[140.6928,40.2155],[140.716,40.2856],[140.7393,40.2883],[140.7625,40.2265],[140.7858,40.1544],[140.809,40.1131],[140.8323,40.0929],[140.8457,40.0748],[140.8447,40.0737],[140.8465,39.9745],[140.8781,39.8747],[140.8527,39.8665],[140.8261,39.8867],[140.783,39.8657],[140.787,39.8238],[140.8478,39.7961],[140.7749,39.7349],[140.8229,39.6882],[140.8219,39.6498],[140.7957,39.6033],[140.7307,39.5661],[140.7243,39.4807],[140.6831,39.4575],[140.6834,39.4222],[140.6586,39.4157],[140.6541,39.3909],[140.7042,39.343],[140.6933,39.3025],[140.7179,39.2965],[140.7182,39.2729],[140.7888,39.238],[140.7657,39.1977],[140.8085,39.1803],[140.7496,39.1397],[140.7702,39.1244],[140.7529,39.0865],[140.8024,39.0778],[140.8103,39.0574],[140.7645,39.0001],[140.7739,38.9585],[140.8262,38.9635],[140.8814,38.9291],[140.958,38.9085],[140.9865,38.8755],[141.0939,38.8881],[141.1401,38.8779],[141.1463,38.8559],[141.1051,38.8377],[141.1059,38.8232],[141.1407,38.8139],[141.1483,38.7846],[141.1812,38.7848],[141.2348,38.7484],[141.2736,38.7969],[141.3035,38.7933],[141.3104,38.8227],[141.3945,38.7997],[141.4107,38.7681],[141.4383,38.7833],[141.4297,38.8109],[141.4589,38.8148],[141.4663,38.8572],[141.4514,38.8767],[141.4916,38.9159],[141.491,38.9985],[141.5681,38.9957],[141.6322,38.971]]],[[[129.8622,33.5875],[129.8612,33.6183],[129.8479,33.5998],[129.8622,33.5875]]],[[[129.757,33.5634],[129.7726,33.5736],[129.7468,33.5824],[129.757,33.5634]]],[[[129.8741,33.5438],[129.892,33.5561],[129.8804,33.5675],[129.8741,33.5438]]],[[[130.3549,33.1404],[130.3737,33.1394],[130.3718,33.1207],[130.3961,33.108],[130.3871,33.0951],[130.4165,33.0717],[130.4275,33.0355],[130.4068,33.0159],[130.4214,33.012],[130.3946,33.0032],[130.4132,33.0029],[130.429,32.9962],[130.4433,32.9145],[130.4601,32.9193],[130.4618,32.9013],[130.5268,32.8782],[130.5229,32.8517],[130.5834,32.8415],[130.5778,32.8285],[130.6135,32.7925],[130.5901,32.7638],[130.6075,32.7129],[130.4593,32.633],[130.459,32.6067],[130.651,32.6424],[130.6595,32.6313],[130.6532,32.6129],[130.6163,32.6173],[130.6334,32.6033],[130.5388,32.5332],[130.5726,32.5094],[130.5415,32.4953],[130.5471,32.4771],[130.5689,32.4753],[130.5732,32.4341],[130.489,32.3658],[130.5054,32.3538],[130.4641,32.3263],[130.489,32.2961],[130.472,32.2861],[130.4642,32.2961],[130.4644,32.2768],[130.4492,32.2884],[130.424,32.2504],[130.4394,32.2367],[130.4016,32.2353],[130.3718,32.2027],[130.379,32.176],[130.3623,32.1827],[130.36,32.1678],[130.3514,32.1358],[130.3081,32.108],[130.2656,32.1285],[130.2231,32.1279],[130.1781,32.1085],[130.1702,32.0865],[130.2035,32.0693],[130.1728,31.9915],[130.2,31.9861],[130.2231,31.9115],[130.166,31.7938],[130.1855,31.7487],[130.2125,31.7553],[130.2518,31.7309],[130.2528,31.7092],[130.2738,31.7059],[130.3147,31.6583],[130.3338,31.5865],[130.3213,31.5119],[130.2716,31.4259],[130.2247,31.3986],[130.191,31.4098],[130.1921,31.4288],[130.1875,31.41],[130.1692,31.4199],[130.1577,31.4397],[130.1353,31.4129],[130.1085,31.4203],[130.2089,31.3469],[130.173,31.3235],[130.2232,31.3104],[130.199,31.2969],[130.2009,31.282],[130.2287,31.2805],[130.2142,31.2491],[130.2368,31.2589],[130.2769,31.2466],[130.2908,31.2689],[130.3531,31.2501],[130.4623,31.2499],[130.5075,31.2131],[130.5197,31.1651],[130.5543,31.1781],[130.5862,31.1559],[130.5938,31.1785],[130.6354,31.1864],[130.6449,31.2022],[130.6301,31.2115],[130.6549,31.2177],[130.6486,31.2417],[130.6667,31.2667],[130.6218,31.2755],[130.5704,31.3138],[130.5411,31.3856],[130.5571,31.3856],[130.5245,31.4137],[130.5117,31.4634],[130.5317,31.4698],[130.5127,31.4905],[130.5303,31.484],[130.5329,31.5009],[130.5176,31.5032],[130.5579,31.5463],[130.5607,31.5957],[130.618,31.6565],[130.6151,31.6995],[130.6867,31.735],[130.7288,31.7247],[130.737,31.7067],[130.7939,31.7018],[130.8219,31.656],[130.7642,31.5623],[130.7057,31.5569],[130.719,31.5617],[130.7157,31.6029],[130.6771,31.6291],[130.627,31.621],[130.5912,31.5899],[130.6361,31.5459],[130.6974,31.5553],[130.6976,31.4629],[130.7567,31.4213],[130.8018,31.3365],[130.7891,31.2532],[130.7529,31.2103],[130.7655,31.1796],[130.747,31.1398],[130.6529,31.0694],[130.6779,31.0529],[130.6606,30.9942],[130.7468,31.0605],[130.9598,31.1372],[130.9731,31.1669],[130.9944,31.1695],[130.9843,31.1798],[131.0162,31.2278],[131.0659,31.2281],[131.1266,31.2752],[131.1218,31.2867],[131.0784,31.2723],[131.073,31.2915],[131.1075,31.3308],[131.0171,31.3565],[131.0185,31.3913],[131.0557,31.4415],[131.109,31.476],[131.1595,31.4616],[131.2411,31.4267],[131.255,31.3802],[131.3086,31.3903],[131.3176,31.3685],[131.349,31.3687],[131.3318,31.3952],[131.3707,31.4307],[131.3617,31.4699],[131.388,31.4847],[131.3722,31.5068],[131.3811,31.5552],[131.4001,31.5815],[131.4114,31.5699],[131.4106,31.5924],[131.4685,31.6451],[131.4495,31.6798],[131.4678,31.6864],[131.4575,31.7093],[131.4874,31.7855],[131.4518,31.8347],[131.4903,32.0032],[131.5919,32.3065],[131.6274,32.3429],[131.642,32.407],[131.6879,32.4226],[131.6541,32.4271],[131.6776,32.4301],[131.6735,32.4539],[131.6706,32.4371],[131.6633,32.449],[131.6414,32.4388],[131.6583,32.4826],[131.6941,32.4693],[131.7277,32.4926],[131.7134,32.5197],[131.6848,32.5085],[131.6932,32.5677],[131.7536,32.6017],[131.7724,32.6339],[131.7502,32.6455],[131.7633,32.6419],[131.7781,32.6741],[131.7901,32.6629],[131.8259,32.7063],[131.8504,32.6933],[131.8493,32.7191],[131.8643,32.7162],[131.8588,32.7331],[131.8851,32.7457],[131.8678,32.7742],[131.8792,32.7912],[131.8954,32.7651],[131.8895,32.8047],[131.9021,32.7852],[131.9195,32.7857],[131.9195,32.8003],[131.9361,32.7851],[131.9544,32.8074],[131.9711,32.7917],[132.0077,32.8285],[131.9841,32.8458],[131.9802,32.8247],[131.9631,32.8385],[131.9629,32.8187],[131.9421,32.8356],[131.9494,32.8553],[131.9601,32.8464],[132.0148,32.8903],[131.9944,32.8989],[131.9863,32.8883],[131.9769,32.9227],[132.0079,32.9058],[132.0272,32.9358],[132.0846,32.9327],[132.0323,32.9537],[132.0331,32.9394],[132.0029,32.9322],[132.0026,32.9587],[131.9811,32.9393],[131.9739,32.9636],[131.9593,32.9599],[131.9584,32.9457],[131.889,32.9917],[131.9289,33.0523],[132.015,33.0582],[132.0012,33.0963],[131.9728,33.0619],[131.9418,33.0703],[131.9406,33.0965],[131.9276,33.0667],[131.9116,33.0664],[131.9098,33.0821],[131.8626,33.0753],[131.8524,33.0888],[131.9147,33.1249],[131.8996,33.1343],[131.8444,33.1149],[131.7978,33.127],[131.8276,33.1501],[131.8337,33.182],[131.868,33.2023],[131.8713,33.2361],[131.9015,33.268],[131.8665,33.2583],[131.8718,33.2489],[131.7705,33.2411],[131.778,33.2529],[131.7539,33.2523],[131.7579,33.2401],[131.6799,33.279],[131.6715,33.2601],[131.631,33.2719],[131.5884,33.2455],[131.5111,33.2688],[131.4952,33.3296],[131.4988,33.3605],[131.5377,33.3678],[131.5508,33.3497],[131.5861,33.3463],[131.5962,33.3709],[131.6435,33.3757],[131.6346,33.4233],[131.7024,33.4071],[131.738,33.4649],[131.7442,33.5427],[131.6913,33.6408],[131.6644,33.6684],[131.651,33.6603],[131.6352,33.6821],[131.6243,33.6699],[131.5846,33.6925],[131.5747,33.6751],[131.5596,33.6867],[131.4981,33.6699],[131.4685,33.6121],[131.4232,33.5917],[131.4301,33.5738],[131.2883,33.5784],[131.2445,33.6111],[131.2302,33.6015],[131.1845,33.6162],[131.1281,33.6312],[131.093,33.6235],[131.0032,33.7498],[131.0106,33.7775],[130.9913,33.7734],[130.9968,33.7963],[130.9817,33.7844],[130.9995,33.8155],[130.9658,33.8094],[130.9596,33.839],[130.9926,33.8509],[130.9978,33.8669],[130.9813,33.8671],[131.0039,33.8915],[130.9871,33.9002],[131.0147,33.9199],[131.0011,33.925],[131.0191,33.9629],[130.9621,33.962],[130.9297,33.9069],[130.891,33.8877],[130.8769,33.8901],[130.8868,33.9021],[130.863,33.8955],[130.8832,33.9053],[130.8718,33.9153],[130.8474,33.9054],[130.8685,33.9181],[130.8497,33.9149],[130.8562,33.9289],[130.8233,33.9199],[130.7988,33.8739],[130.8017,33.8913],[130.7715,33.8748],[130.7404,33.8749],[130.7433,33.8882],[130.7526,33.8781],[130.7968,33.8909],[130.8143,33.9269],[130.7767,33.9342],[130.7536,33.9203],[130.769,33.9472],[130.7473,33.9233],[130.6817,33.9369],[130.6565,33.9093],[130.6645,33.8957],[130.5941,33.8779],[130.5236,33.8895],[130.5164,33.8601],[130.4765,33.8578],[130.4723,33.8183],[130.4434,33.8146],[130.4663,33.7532],[130.3954,33.685],[130.3216,33.6603],[130.2892,33.6864],[130.2953,33.6631],[130.3559,33.6434],[130.3687,33.6653],[130.4286,33.6873],[130.4341,33.6626],[130.404,33.6521],[130.4207,33.6424],[130.4065,33.6423],[130.3987,33.6005],[130.3892,33.6096],[130.3852,33.594],[130.3729,33.605],[130.2727,33.5824],[130.2725,33.6115],[130.231,33.6165],[130.2351,33.6496],[130.2086,33.6671],[130.1989,33.6409],[130.1561,33.6283],[130.1459,33.5953],[130.0885,33.5836],[130.0978,33.5643],[130.133,33.5679],[130.1157,33.5469],[130.1635,33.5607],[130.1521,33.5369],[130.1218,33.5088],[130.0996,33.5157],[130.0444,33.4962],[130.0387,33.4697],[130.0194,33.4463],[129.9671,33.4552],[129.9624,33.4835],[129.9546,33.4693],[129.9362,33.4786],[129.967,33.5086],[129.956,33.5295],[129.9278,33.5507],[129.8958,33.5494],[129.8744,33.5161],[129.8749,33.5371],[129.8451,33.5553],[129.8562,33.5191],[129.8396,33.5222],[129.8563,33.5055],[129.8273,33.5176],[129.8443,33.4786],[129.8314,33.4762],[129.8497,33.4751],[129.8579,33.4538],[129.8352,33.4436],[129.8382,33.4621],[129.8055,33.485],[129.7936,33.4713],[129.8062,33.4573],[129.7828,33.4541],[129.8307,33.4218],[129.8227,33.4118],[129.868,33.4075],[129.8474,33.3369],[129.8273,33.3373],[129.8484,33.3287],[129.8274,33.3124],[129.8528,33.2921],[129.836,33.2867],[129.7899,33.3403],[129.7848,33.3723],[129.7699,33.3545],[129.7444,33.3671],[129.7146,33.3477],[129.6961,33.3613],[129.6776,33.353],[129.6715,33.3995],[129.6458,33.3647],[129.5679,33.3771],[129.5749,33.3321],[129.5613,33.3244],[129.5842,33.3058],[129.6215,33.3102],[129.5822,33.2895],[129.5883,33.2718],[129.5692,33.2707],[129.552,33.2191],[129.5951,33.2089],[129.6138,33.2241],[129.6005,33.2055],[129.6207,33.2165],[129.6258,33.1885],[129.6363,33.2251],[129.6569,33.1858],[129.6358,33.1671],[129.6725,33.1673],[129.6974,33.1423],[129.6797,33.1259],[129.6577,33.1323],[129.6648,33.1015],[129.67,33.1183],[129.7095,33.1154],[129.7007,33.1631],[129.7264,33.1617],[129.731,33.1243],[129.7541,33.1473],[129.7847,33.1427],[129.7651,33.143],[129.7597,33.1136],[129.7427,33.1215],[129.7524,33.1002],[129.73,33.1032],[129.7556,33.0545],[129.7804,33.0613],[129.757,33.0819],[129.7684,33.1011],[129.7646,33.0779],[129.794,33.0834],[129.7985,33.0661],[129.8362,33.0597],[129.8197,33.0378],[129.8718,33.0648],[129.921,33.0338],[129.9493,32.9854],[129.9272,32.9687],[129.9301,32.9233],[129.9702,32.8889],[129.9657,32.8725],[130.0077,32.8463],[129.9779,32.8361],[129.9497,32.863],[129.9325,32.8576],[129.896,32.8799],[129.8917,32.868],[129.8798,32.8821],[129.8676,32.8441],[129.8515,32.8605],[129.8466,32.8309],[129.8153,32.8633],[129.7877,32.8668],[129.8095,32.8951],[129.8057,32.9089],[129.783,32.9086],[129.7849,32.948],[129.7977,32.9539],[129.8081,32.9167],[129.8203,32.9841],[129.7629,33.0211],[129.7511,33.0032],[129.7655,32.9989],[129.7375,32.9889],[129.7322,33.0169],[129.7609,33.0493],[129.7487,33.0601],[129.7261,33.0466],[129.7281,33.0753],[129.6758,33.0982],[129.661,33.0759],[129.6777,33.0787],[129.6589,33.0698],[129.6785,33.0623],[129.6462,33.0357],[129.661,33.0004],[129.6267,32.9789],[129.6338,32.9254],[129.6511,32.9311],[129.7019,32.8309],[129.7369,32.8054],[129.7459,32.8224],[129.774,32.8183],[129.7656,32.7997],[129.801,32.7763],[129.8048,32.7438],[129.8286,32.7436],[129.8186,32.7199],[129.8451,32.7206],[129.8699,32.7505],[129.836,32.6885],[129.8194,32.6955],[129.8279,32.707],[129.7926,32.6941],[129.8027,32.6776],[129.8188,32.6845],[129.8162,32.6552],[129.7388,32.5692],[129.765,32.5828],[129.781,32.5719],[129.8315,32.6159],[129.836,32.6393],[129.8925,32.6603],[129.9129,32.7123],[129.9551,32.7415],[129.9486,32.7604],[130.0224,32.7585],[130.0835,32.7945],[130.1793,32.7939],[130.184,32.7627],[130.2068,32.7532],[130.2008,32.7206],[130.1707,32.6928],[130.1412,32.6781],[130.126,32.6891],[130.13,32.6392],[130.1665,32.6213],[130.1678,32.5908],[130.197,32.6019],[130.1876,32.6112],[130.2318,32.6122],[130.2589,32.6525],[130.301,32.6515],[130.3436,32.6719],[130.3773,32.7782],[130.3385,32.8561],[130.2944,32.8787],[130.2414,32.8749],[130.1856,32.8403],[130.1277,32.8413],[130.1384,32.8536],[130.119,32.8739],[130.0893,32.8631],[130.1278,32.8967],[130.1834,32.9142],[130.2027,32.9569],[130.2206,32.9751],[130.1903,32.9911],[130.1398,33.0943],[130.1123,33.1011],[130.1219,33.1247],[130.149,33.1127],[130.2217,33.1653],[130.2306,33.1887],[130.2149,33.1993],[130.2465,33.1923],[130.2454,33.2029],[130.2878,33.1469],[130.3549,33.1404]]],[[[130.4223,32.5461],[130.4524,32.554],[130.4419,32.5691],[130.4576,32.5881],[130.4406,32.5952],[130.4571,32.6141],[130.4406,32.6255],[130.419,32.6175],[130.4243,32.6037],[130.4101,32.6145],[130.3931,32.5865],[130.4152,32.5813],[130.4033,32.5523],[130.4223,32.5461]]],[[[130.487,32.5763],[130.5077,32.6067],[130.4726,32.6032],[130.487,32.5763]]],[[[130.4638,32.5398],[130.486,32.5712],[130.472,32.5877],[130.4638,32.5398]]],[[[130.3533,32.4048],[130.3553,32.3768],[130.4029,32.3946],[130.4017,32.4255],[130.4219,32.4325],[130.4079,32.4353],[130.4599,32.5301],[130.4177,32.5242],[130.3919,32.4995],[130.3828,32.5241],[130.317,32.5174],[130.2888,32.4839],[130.1995,32.4477],[130.185,32.5476],[130.1175,32.548],[130.0434,32.5124],[130.0357,32.5362],[130.0194,32.5348],[130.0457,32.4886],[129.9753,32.3582],[129.9765,32.3297],[129.9943,32.3065],[130.0242,32.3159],[130.0699,32.2995],[130.0603,32.2775],[130.0484,32.3041],[130.0278,32.2988],[130.0316,32.2744],[130.0245,32.3011],[129.9918,32.2841],[129.9674,32.2427],[129.9985,32.2532],[129.9878,32.2408],[130.0102,32.2375],[129.9906,32.1962],[130.0223,32.1886],[130.0279,32.2139],[130.0442,32.199],[130.0771,32.2124],[130.0819,32.2437],[130.0974,32.2288],[130.0916,32.255],[130.1653,32.2967],[130.1389,32.2973],[130.1578,32.3357],[130.1755,32.3393],[130.172,32.3103],[130.2035,32.3255],[130.2238,32.3661],[130.2189,32.3919],[130.1928,32.3884],[130.2108,32.4308],[130.2444,32.4079],[130.2336,32.3848],[130.2608,32.4104],[130.3285,32.3985],[130.3492,32.4213],[130.3533,32.4048]]],[[[130.419,32.3673],[130.4358,32.3817],[130.4134,32.3991],[130.419,32.3673]]],[[[130.3091,32.3391],[130.3402,32.3557],[130.3027,32.3631],[130.3015,32.3506],[130.3233,32.3482],[130.3091,32.3391]]],[[[130.3017,32.3039],[130.3441,32.3127],[130.3734,32.3483],[130.3459,32.3499],[130.331,32.3142],[130.3017,32.3039]]],[[[130.0461,32.1567],[130.026,32.1908],[130.0164,32.1625],[130.0313,32.1748],[130.0461,32.1567]]],[[[127.9339,26.9943],[128.0191,27.0945],[127.9493,27.0426],[127.9339,26.9943]]],[[[127.9384,26.9106],[127.9558,26.9349],[127.9359,26.9547],[127.9112,26.9357],[127.9384,26.9106]]],[[[128.1534,26.7166],[128.1,26.6779],[128.1259,26.6575],[128.1099,26.6675],[128.0234,26.6265],[127.9816,26.6488],[128.0021,26.6879],[127.9524,26.7074],[127.8784,26.7085],[127.894,26.6056],[127.9449,26.6013],[127.9789,26.5879],[127.9807,26.5724],[127.9622,26.5405],[127.9307,26.5419],[127.9177,26.5171],[127.8427,26.5032],[127.8443,26.4804],[127.7968,26.4361],[127.7696,26.4449],[127.7354,26.4216],[127.7107,26.4404],[127.7588,26.3086],[127.74,26.2807],[127.6676,26.2455],[127.6825,26.2246],[127.6615,26.2153],[127.6727,26.2068],[127.6506,26.2171],[127.6354,26.1977],[127.6545,26.1725],[127.6467,26.1513],[127.6681,26.1513],[127.6469,26.1444],[127.6676,26.133],[127.6584,26.0805],[127.7245,26.0911],[127.8303,26.1683],[127.8206,26.1915],[127.7765,26.1721],[127.7564,26.205],[127.7702,26.2013],[127.7874,26.2266],[127.8162,26.2774],[127.8098,26.2975],[127.8466,26.316],[127.8328,26.3212],[127.838,26.3315],[127.8557,26.3423],[127.8624,26.3447],[127.8649,26.3439],[127.9202,26.2954],[127.9174,26.3293],[127.8851,26.342],[127.8768,26.3786],[127.8302,26.4311],[127.8686,26.4569],[127.9479,26.4375],[127.9502,26.4721],[128.0011,26.485],[127.9962,26.509],[128.0519,26.5201],[128.0321,26.5527],[128.0939,26.534],[128.1497,26.5679],[128.1229,26.6025],[128.1502,26.5977],[128.1487,26.6291],[128.2377,26.6329],[128.3258,26.7493],[128.3036,26.8445],[128.2486,26.8704],[128.2305,26.7966],[128.1788,26.7475],[128.1515,26.7451],[128.1534,26.7166]]],[[[127.8061,26.7054],[127.8296,26.7198],[127.8066,26.7385],[127.7511,26.7322],[127.7544,26.7091],[127.8061,26.7054]]],[[[128.0197,26.6943],[128.0254,26.7103],[128.0116,26.7133],[128.0197,26.6943]]],[[[128.0314,26.6448],[128.0188,26.6788],[127.9936,26.6702],[128.0314,26.6448]]],[[[127.8612,26.6289],[127.8664,26.6531],[127.8539,26.6485],[127.8612,26.6289]]],[[[127.2077,26.5743],[127.2465,26.5865],[127.2293,26.6013],[127.2077,26.5743]]],[[[126.7255,26.3461],[126.7588,26.3409],[126.7774,26.3057],[126.8102,26.2908],[126.8043,26.3252],[126.8232,26.3447],[126.778,26.3904],[126.7095,26.3695],[126.7255,26.3461]]],[[[127.9321,26.3311],[127.9936,26.3607],[127.9862,26.3835],[127.9428,26.3567],[127.9321,26.3311]]],[[[127.1451,26.3478],[127.1592,26.3633],[127.1445,26.3811],[127.1451,26.3478]]],[[[126.8859,26.3441],[126.8964,26.3501],[126.8701,26.345],[126.8859,26.3441]]],[[[127.8431,26.3343],[127.8372,26.3295],[127.8406,26.3261],[127.8698,26.33],[127.8684,26.336],[127.8618,26.3436],[127.8431,26.3343]]],[[[127.9587,26.3084],[127.9666,26.322],[127.9504,26.3271],[127.9587,26.3084]]],[[[127.3037,26.2185],[127.3104,26.2375],[127.3318,26.2279],[127.3083,26.2508],[127.2806,26.2299],[127.3037,26.2185]]],[[[127.3476,26.1451],[127.3718,26.2015],[127.355,26.2254],[127.3384,26.1807],[127.3476,26.1451]]],[[[127.2751,26.1859],[127.2913,26.1946],[127.2791,26.2123],[127.264,26.1965],[127.2751,26.1859]]],[[[131.3058,25.9283],[131.3323,25.9519],[131.2855,25.9605],[131.3058,25.9283]]],[[[131.2306,25.8128],[131.2639,25.8241],[131.2628,25.8688],[131.22,25.8642],[131.2145,25.8221],[131.2306,25.8128]]],[[[123.4604,25.7353],[123.4932,25.7447],[123.4764,25.7517],[123.4604,25.7353]]],[[[125.2465,24.9199],[125.2468,24.9346],[125.2294,24.934],[125.2465,24.9199]]],[[[125.306,24.7115],[125.3689,24.7289],[125.4673,24.7189],[125.4296,24.7608],[125.3324,24.7991],[125.2963,24.8777],[125.2529,24.9098],[125.2943,24.8454],[125.2552,24.7949],[125.2813,24.7509],[125.264,24.7511],[125.2604,24.7679],[125.2507,24.7554],[125.306,24.7115]]],[[[125.1812,24.8113],[125.2149,24.8069],[125.2175,24.8273],[125.1614,24.865],[125.1543,24.8361],[125.1812,24.8113]]],[[[125.1812,24.8113],[125.1377,24.8418],[125.1438,24.8069],[125.1812,24.8113]]],[[[125.2468,24.7127],[125.2551,24.7211],[125.2391,24.7311],[125.2468,24.7127]]],[[[124.6906,24.6397],[124.7162,24.6451],[124.7184,24.6699],[124.6697,24.6699],[124.6683,24.6465],[124.6906,24.6397]]],[[[124.173,24.3279],[124.1958,24.3513],[124.2345,24.3434],[124.2465,24.357],[124.2489,24.4651],[124.3033,24.5259],[124.3355,24.6027],[124.3081,24.6069],[124.2789,24.5576],[124.2908,24.5387],[124.2754,24.5045],[124.253,24.5175],[124.2252,24.4971],[124.2181,24.4527],[124.1365,24.4401],[124.1404,24.4617],[124.1126,24.48],[124.1161,24.4446],[124.0738,24.4512],[124.0664,24.4301],[124.0818,24.4139],[124.113,24.4323],[124.1399,24.4111],[124.1082,24.3632],[124.173,24.3279]]],[[[123.0116,24.4372],[123.0421,24.464],[122.9625,24.4729],[122.9335,24.4482],[123.0116,24.4372]]],[[[131.1869,24.4617],[131.195,24.4694],[131.1807,24.4721],[131.1869,24.4617]]],[[[123.8718,24.2544],[123.8811,24.2798],[123.9028,24.2746],[123.8981,24.3014],[123.9102,24.3243],[123.9257,24.3145],[123.9378,24.3643],[123.8855,24.383],[123.8718,24.4029],[123.8315,24.4064],[123.8148,24.3909],[123.7687,24.4361],[123.772,24.4199],[123.7416,24.3929],[123.7575,24.3471],[123.7435,24.3411],[123.7499,24.3117],[123.7017,24.3484],[123.707,24.3127],[123.6832,24.3313],[123.6851,24.3095],[123.6602,24.3071],[123.6797,24.2819],[123.7172,24.2775],[123.7204,24.2986],[123.8718,24.2544]]],[[[123.9888,24.3229],[124.002,24.3271],[123.9774,24.3527],[123.9519,24.3353],[123.9888,24.3229]]],[[[124.0805,24.3097],[124.0979,24.3181],[124.0814,24.3381],[124.0805,24.3097]]],[[[124.0107,24.2199],[124.0272,24.2437],[123.9968,24.2529],[123.9914,24.2368],[124.0107,24.2199]]],[[[123.7908,24.0447],[123.8025,24.0665],[123.7525,24.0599],[123.7908,24.0447]]],[[[129.3831,34.4243],[129.3684,34.453],[129.4725,34.5562],[129.4776,34.5949],[129.4324,34.6177],[129.4552,34.6125],[129.4464,34.6312],[129.4783,34.6177],[129.49,34.6453],[129.4645,34.654],[129.4963,34.6673],[129.448,34.7066],[129.4149,34.6921],[129.4328,34.6727],[129.4058,34.6767],[129.3825,34.6489],[129.3957,34.6391],[129.3514,34.6496],[129.3319,34.6369],[129.3203,34.6487],[129.2857,34.56],[129.3049,34.5679],[129.3436,34.5333],[129.3192,34.5375],[129.3133,34.5149],[129.3068,34.5263],[129.2734,34.4677],[129.2818,34.4481],[129.3127,34.4655],[129.2928,34.4333],[129.2736,34.4404],[129.2754,34.3728],[129.2282,34.3586],[129.2712,34.3573],[129.2871,34.3393],[129.2822,34.3831],[129.3101,34.3886],[129.3077,34.3369],[129.3219,34.3695],[129.3542,34.3743],[129.3402,34.3563],[129.3522,34.3193],[129.3328,34.3183],[129.3517,34.2958],[129.3621,34.32],[129.3777,34.3119],[129.3646,34.3387],[129.394,34.3351],[129.3644,34.3449],[129.393,34.3618],[129.3718,34.3697],[129.3968,34.4118],[129.351,34.3867],[129.3786,34.4122],[129.3638,34.4341],[129.3831,34.4243]]],[[[129.3328,34.3043],[129.325,34.3361],[129.3174,34.3259],[129.2966,34.3365],[129.2906,34.3229],[129.3145,34.3243],[129.3328,34.3043]]],[[[129.2134,34.0839],[129.2294,34.1116],[129.2383,34.1021],[129.2598,34.1149],[129.2532,34.1261],[129.281,34.1303],[129.2873,34.1999],[129.2982,34.1941],[129.298,34.2227],[129.3248,34.226],[129.316,34.2623],[129.352,34.2775],[129.3387,34.2995],[129.3046,34.2772],[129.3087,34.3077],[129.2963,34.3007],[129.2766,34.3262],[129.2651,34.3203],[129.288,34.3045],[129.2897,34.2769],[129.2792,34.3059],[129.2602,34.2907],[129.2555,34.3113],[129.2216,34.2935],[129.2194,34.3313],[129.1951,34.3123],[129.1663,34.1032],[129.1819,34.1181],[129.2028,34.1039],[129.212,34.1132],[129.2134,34.0839]]],[[[129.3956,34.3117],[129.4112,34.3194],[129.387,34.3204],[129.3956,34.3117]]],[[[129.3592,34.2712],[129.3924,34.3001],[129.3504,34.2942],[129.3592,34.2712]]],[[[129.7159,33.7044],[129.7316,33.7375],[129.7876,33.7415],[129.7971,33.7625],[129.7572,33.7758],[129.7983,33.7884],[129.7438,33.8083],[129.7631,33.8114],[129.7717,33.8428],[129.7021,33.8628],[129.6711,33.8374],[129.689,33.8049],[129.6494,33.8065],[129.685,33.7596],[129.6427,33.7675],[129.6565,33.7385],[129.6729,33.7593],[129.69,33.7453],[129.6768,33.7279],[129.7159,33.7044]]],[[[129.5528,33.4693],[129.5823,33.4961],[129.5517,33.4905],[129.5545,33.5099],[129.4968,33.4727],[129.5206,33.4717],[129.528,33.4863],[129.5528,33.4693]]],[[[129.7322,33.4057],[129.763,33.4333],[129.792,33.4304],[129.7662,33.4407],[129.7556,33.4691],[129.7432,33.4289],[129.7187,33.4199],[129.7322,33.4057]]],[[[129.5086,33.4242],[129.5429,33.4409],[129.5294,33.4543],[129.5086,33.4242]]],[[[129.4156,33.351],[129.4342,33.3549],[129.4328,33.4422],[129.3967,33.3604],[129.4156,33.351]]],[[[129.8122,33.3485],[129.8184,33.3657],[129.8586,33.3786],[129.7959,33.4138],[129.8129,33.4031],[129.8122,33.3485]]],[[[129.3748,33.169],[129.4333,33.1909],[129.5007,33.2597],[129.4848,33.2846],[129.5311,33.3123],[129.5135,33.3308],[129.5438,33.331],[129.5689,33.359],[129.5522,33.3689],[129.5529,33.4093],[129.5174,33.3995],[129.5506,33.3805],[129.5236,33.3799],[129.5239,33.3549],[129.51,33.3813],[129.4987,33.3558],[129.4363,33.3471],[129.4459,33.2913],[129.423,33.2903],[129.4026,33.2653],[129.4347,33.2372],[129.4193,33.2392],[129.4239,33.2246],[129.407,33.2396],[129.3815,33.2264],[129.381,33.2067],[129.406,33.1971],[129.399,33.1799],[129.3657,33.1869],[129.3548,33.207],[129.3476,33.1821],[129.3748,33.169]]],[[[129.1179,33.2456],[129.155,33.2723],[129.1347,33.3022],[129.0697,33.2702],[129.1179,33.2456]]],[[[129.0496,33.1834],[129.0662,33.1949],[129.0881,33.1859],[129.0799,33.2086],[129.0957,33.2157],[129.0665,33.2067],[129.0448,33.2191],[129.0275,33.1995],[129.0496,33.1834]]],[[[129.1315,33.1592],[129.1413,33.1943],[129.122,33.2137],[129.1315,33.1592]]],[[[129.0585,32.8169],[129.0663,32.8633],[129.0981,32.8599],[129.0811,32.8965],[129.0943,32.9031],[129.0838,32.9264],[129.1067,32.9251],[129.1008,32.9613],[129.1385,32.9371],[129.1816,32.9741],[129.1824,33.0021],[129.164,33.0085],[129.1099,32.9817],[129.082,32.9863],[129.113,33.0627],[129.1139,33.1639],[129.0935,33.1209],[129.1059,33.0869],[129.0742,33.0559],[129.0875,33.0255],[129.0684,33.0202],[129.0652,33.0435],[129.0427,33.0289],[129.0446,32.9851],[129.0653,32.9809],[129.0474,32.9567],[129.0464,32.9762],[129.029,32.9605],[129.0112,32.9764],[128.9922,32.9457],[129.0125,32.9487],[129.0217,32.932],[129.0338,32.948],[129.0257,32.9189],[129.0667,32.9045],[129.0615,32.8948],[129.0376,32.9077],[129.0585,32.8882],[129.0395,32.8743],[129.0419,32.8247],[129.0585,32.8169]]],[[[129.5358,33.1316],[129.5433,33.1518],[129.503,33.1409],[129.5358,33.1316]]],[[[129.6087,33.0227],[129.6351,33.0623],[129.6072,33.0652],[129.591,33.0455],[129.5878,33.0269],[129.6087,33.0227]]],[[[129.5616,33.0007],[129.5831,33.0283],[129.5605,33.0299],[129.5748,33.0237],[129.5616,33.0007]]],[[[129.2339,32.9889],[129.2595,33.0209],[129.221,32.9995],[129.2386,32.9997],[129.2339,32.9889]]],[[[129.3452,32.9975],[129.361,33.0032],[129.3535,33.0206],[129.3452,32.9975]]],[[[129.1908,33.0068],[129.1939,33.0181],[129.1732,33.0137],[129.1908,33.0068]]],[[[129.6109,32.9162],[129.6236,32.9351],[129.5976,32.9468],[129.6109,32.9162]]],[[[129.0259,32.8443],[129.0317,32.8955],[128.9881,32.9328],[128.9793,32.9066],[129.0006,32.9021],[129.0022,32.8767],[128.9603,32.9033],[128.9657,32.8715],[128.9767,32.8592],[129.0126,32.8681],[129.0259,32.8443]]],[[[128.9616,32.9048],[128.9672,32.9299],[128.9555,32.9161],[128.9298,32.9199],[128.9616,32.9048]]],[[[128.9402,32.7997],[128.94,32.8255],[128.9592,32.8323],[128.955,32.8722],[128.9399,32.884],[128.9385,32.8487],[128.9244,32.8731],[128.931,32.8354],[128.9139,32.8702],[128.8875,32.8772],[128.8718,32.8616],[128.9182,32.8433],[128.9283,32.8269],[128.9143,32.8205],[128.9346,32.8273],[128.9402,32.7997]]],[[[128.8655,32.7635],[128.9095,32.7973],[128.8626,32.844],[128.8764,32.8005],[128.8616,32.8017],[128.8609,32.8333],[128.8365,32.838],[128.8317,32.7973],[128.8655,32.7635]]],[[[128.772,32.5745],[128.7921,32.5931],[128.7609,32.6199],[128.7676,32.643],[128.8082,32.6549],[128.8206,32.6361],[128.8917,32.6414],[128.8384,32.7134],[128.8544,32.7448],[128.8309,32.7515],[128.8253,32.7403],[128.8327,32.7607],[128.8035,32.7525],[128.825,32.7607],[128.8049,32.7737],[128.8073,32.7978],[128.7644,32.7601],[128.7962,32.7562],[128.7729,32.7506],[128.7722,32.7343],[128.7563,32.7686],[128.7377,32.7385],[128.7402,32.7508],[128.7239,32.7471],[128.7351,32.7569],[128.6909,32.739],[128.6961,32.7665],[128.6631,32.7841],[128.6403,32.7608],[128.6617,32.7006],[128.6468,32.6971],[128.6487,32.6804],[128.6754,32.6719],[128.6707,32.6514],[128.6494,32.6569],[128.667,32.6461],[128.6428,32.6539],[128.653,32.6417],[128.6353,32.6336],[128.6413,32.6188],[128.666,32.6288],[128.6445,32.6032],[128.6254,32.6273],[128.6141,32.6178],[128.6102,32.6465],[128.5977,32.6141],[128.6516,32.5909],[128.6665,32.6082],[128.7377,32.6057],[128.772,32.5745]]],[[[128.986,32.7422],[129.0056,32.7544],[128.9909,32.7909],[128.9878,32.7582],[128.9623,32.7491],[128.986,32.7422]]],[[[128.5985,32.7113],[128.6066,32.7398],[128.5895,32.7271],[128.5985,32.7113]]],[[[128.4046,32.0371],[128.4114,32.0526],[128.3793,32.0404],[128.4046,32.0371]]],[[[134.3209,34.7031],[134.3466,34.7091],[134.3322,34.723],[134.3223,34.714],[134.2935,34.7301],[134.276,34.7214],[134.281,34.7069],[134.3058,34.7147],[134.3209,34.7031]]],[[[134.2575,34.6903],[134.271,34.6965],[134.2498,34.7058],[134.2575,34.6903]]],[[[134.2617,34.6749],[134.273,34.6821],[134.2429,34.6798],[134.2617,34.6749]]],[[[133.5128,34.3897],[133.5258,34.4161],[133.5053,34.4065],[133.5128,34.3897]]],[[[133.5452,34.3666],[133.5572,34.3937],[133.537,34.4013],[133.5156,34.3841],[133.5452,34.3666]]],[[[130.8216,33.9303],[130.8446,33.9393],[130.8316,33.9498],[130.778,33.9458],[130.8216,33.9303]]],[[[130.4262,33.8871],[130.4452,33.9147],[130.4071,33.9111],[130.4262,33.8871]]],[[[130.3634,33.7549],[130.3801,33.7588],[130.3612,33.7667],[130.3634,33.7549]]],[[[130.4051,33.6578],[130.4267,33.6622],[130.4224,33.6745],[130.4051,33.6578]]],[[[131.6326,33.7165],[131.7006,33.7304],[131.6659,33.7398],[131.6326,33.7165]]],[[[131.9455,33.2705],[131.9547,33.2789],[131.9372,33.278],[131.9455,33.2705]]],[[[131.9241,32.9803],[131.942,33.0156],[131.9196,33.0129],[131.9096,32.9876],[131.9241,32.9803]]],[[[132.0728,32.9531],[132.0738,32.977],[132.0597,32.9641],[132.0728,32.9531]]],[[[133.2114,34.3567],[133.2355,34.4063],[133.1719,34.3921],[133.1745,34.3665],[133.2114,34.3567]]],[[[133.1708,34.3735],[133.161,34.3913],[133.1521,34.381],[133.1708,34.3735]]],[[[133.2702,34.3612],[133.2775,34.3807],[133.2596,34.3838],[133.2702,34.3612]]],[[[133.303,34.3428],[133.3407,34.3694],[133.3001,34.367],[133.303,34.3428]]],[[[133.1122,34.3176],[133.1157,34.3599],[133.0943,34.331],[133.1122,34.3176]]],[[[133.1921,34.2751],[133.2089,34.3193],[133.1958,34.3381],[133.1807,34.333],[133.1762,34.3553],[133.149,34.3584],[133.1339,34.3288],[133.1921,34.2751]]],[[[133.0775,34.3016],[133.0756,34.3339],[133.0614,34.314],[133.0775,34.3016]]],[[[132.4327,34.2973],[132.4418,34.3259],[132.4147,34.3024],[132.4327,34.2973]]],[[[133.0825,34.2565],[133.1435,34.2861],[133.1392,34.3152],[133.0834,34.3077],[133.0676,34.2729],[133.0825,34.2565]]],[[[132.2738,34.2314],[132.3465,34.2809],[132.3326,34.3103],[132.2632,34.2563],[132.2738,34.2314]]],[[[132.4284,34.1284],[132.4891,34.142],[132.4712,34.1803],[132.4973,34.2689],[132.4778,34.2962],[132.4731,34.2836],[132.4341,34.2853],[132.445,34.2662],[132.4319,34.2532],[132.4682,34.2465],[132.4725,34.2081],[132.4218,34.2565],[132.3718,34.2588],[132.4275,34.1729],[132.4383,34.1954],[132.4566,34.1758],[132.4284,34.1284]]],[[[132.8791,34.2058],[132.9205,34.215],[132.932,34.2844],[132.8999,34.2473],[132.8862,34.2616],[132.8818,34.2481],[132.8374,34.2418],[132.8502,34.2126],[132.8791,34.2058]]],[[[132.8026,34.2685],[132.805,34.2821],[132.7901,34.2749],[132.8026,34.2685]]],[[[132.7377,34.158],[132.7648,34.1785],[132.7586,34.1921],[132.6859,34.1963],[132.6856,34.1826],[132.7386,34.1729],[132.7377,34.158]]],[[[132.6626,34.1699],[132.6826,34.1858],[132.6759,34.2032],[132.648,34.1849],[132.6443,34.1709],[132.6626,34.1699]]],[[[132.5504,34.079],[132.5698,34.1156],[132.5913,34.1149],[132.5751,34.1277],[132.5394,34.1071],[132.557,34.1506],[132.5477,34.1415],[132.5207,34.1548],[132.556,34.1796],[132.5259,34.1997],[132.4955,34.1699],[132.5031,34.1331],[132.4549,34.1151],[132.4478,34.0935],[132.46,34.0823],[132.5341,34.1027],[132.5504,34.079]]],[[[132.3014,34.1845],[132.3169,34.1872],[132.3097,34.1985],[132.2951,34.1991],[132.3014,34.1845]]],[[[132.8197,34.1509],[132.8673,34.1753],[132.8488,34.1961],[132.8025,34.1718],[132.7989,34.1582],[132.8197,34.1509]]],[[[132.772,34.1608],[132.7962,34.1699],[132.7853,34.1886],[132.772,34.1608]]],[[[132.398,34.1465],[132.4113,34.1695],[132.3835,34.1771],[132.398,34.1465]]],[[[131.1375,34.7585],[131.1628,34.7783],[131.1298,34.7983],[131.1375,34.7585]]],[[[131.2768,34.497],[131.2922,34.5115],[131.2768,34.5182],[131.2768,34.497]]],[[[131.1965,34.3983],[131.2265,34.4283],[131.2223,34.4167],[131.2603,34.4176],[131.2517,34.4382],[131.1709,34.4313],[131.1729,34.4075],[131.1965,34.3983]]],[[[130.8464,34.341],[130.8775,34.3539],[130.8693,34.374],[130.839,34.355],[130.8464,34.341]]],[[[131.731,34.021],[131.7792,34.0488],[131.7335,34.0379],[131.731,34.021]]],[[[131.7181,33.9794],[131.732,33.9825],[131.71,34.0009],[131.7078,34.0347],[131.6908,34.0079],[131.7181,33.9794]]],[[[131.5668,33.9867],[131.6005,34.015],[131.5828,34.0239],[131.5668,34.0115],[131.5668,33.9867]]],[[[131.8202,33.9307],[131.8768,33.9705],[131.8568,33.9897],[131.8475,33.9523],[131.8068,33.9518],[131.8202,33.9307]]],[[[132.2068,33.8569],[132.2211,33.8744],[132.2784,33.8712],[132.268,33.8901],[132.2851,33.9016],[132.3363,33.8832],[132.3268,33.8576],[132.3716,33.8624],[132.3718,33.9111],[132.4064,33.9099],[132.4702,33.9505],[132.4152,33.952],[132.4024,33.9293],[132.3701,33.9283],[132.3289,33.9017],[132.2842,33.9557],[132.2135,33.9651],[132.2029,33.9487],[132.1855,33.9545],[132.1728,33.9225],[132.2068,33.8569]]],[[[132.3523,33.9394],[132.3497,33.9603],[132.3358,33.9488],[132.3523,33.9394]]],[[[132.0221,33.8523],[132.0157,33.8712],[131.9969,33.86],[132.0221,33.8523]]],[[[132.0493,33.7847],[132.086,33.8239],[132.1172,33.8306],[132.0723,33.8577],[132.0771,33.8272],[132.0274,33.7933],[132.0493,33.7847]]],[[[132.2564,33.7665],[132.2731,33.7818],[132.2211,33.8152],[132.1725,33.8049],[132.2564,33.7665]]],[[[131.9635,33.7686],[131.9926,33.7803],[131.9727,33.7978],[131.9467,33.7799],[131.9635,33.7686]]],[[[132.1338,33.7131],[132.152,33.7289],[132.1502,33.7638],[132.1338,33.7131]]],[[[132.9591,34.1911],[133.058,34.2201],[133.0557,34.2581],[133.024,34.2955],[132.9835,34.2906],[132.9898,34.2753],[132.964,34.2634],[132.9943,34.252],[132.9878,34.2233],[132.9641,34.2273],[132.9423,34.2089],[132.9591,34.1911]]],[[[133.2055,34.2386],[133.2363,34.2775],[133.2282,34.2922],[133.1986,34.2681],[133.2055,34.2386]]],[[[133.1327,34.2409],[133.1652,34.2565],[133.1514,34.2806],[133.1327,34.2409]]],[[[133.1102,34.191],[133.1391,34.2213],[133.1066,34.2211],[133.1066,34.2414],[133.0627,34.2341],[133.0568,34.2083],[133.1102,34.191]]],[[[132.8811,34.1748],[132.8906,34.1923],[132.8619,34.1941],[132.8811,34.1748]]],[[[133.0343,34.1077],[133.1105,34.1785],[133.0825,34.1694],[133.0663,34.1917],[133.0289,34.1918],[133.0399,34.1497],[133.0228,34.1541],[133.012,34.1105],[133.0343,34.1077]]],[[[133.3165,34.1702],[133.3253,34.1804],[133.3077,34.1833],[133.3165,34.1702]]],[[[132.6002,33.9428],[132.6411,33.9565],[132.6294,33.9745],[132.6435,33.9791],[132.6444,34.0181],[132.578,33.9692],[132.6002,33.9428]]],[[[133.361,33.9903],[133.3662,34.0075],[133.3501,33.9987],[133.361,33.9903]]],[[[132.5408,33.9613],[132.5648,33.9939],[132.5342,33.9886],[132.5408,33.9613]]],[[[132.4933,33.9648],[132.5227,33.9883],[132.5032,33.989],[132.4933,33.9648]]],[[[132.6567,33.9512],[132.6741,33.9517],[132.6601,33.9749],[132.6567,33.9512]]],[[[132.5288,33.926],[132.5531,33.9369],[132.5154,33.9319],[132.5288,33.926]]],[[[132.6689,33.8705],[132.6891,33.8764],[132.6731,33.9007],[132.7007,33.9271],[132.6524,33.8992],[132.6675,33.8974],[132.6689,33.8705]]],[[[132.3582,33.3691],[132.3662,33.3769],[132.3438,33.3786],[132.3582,33.3691]]],[[[132.5193,33.2176],[132.5339,33.2263],[132.5164,33.2404],[132.5193,33.2176]]],[[[132.3628,33.1879],[132.3746,33.2205],[132.3403,33.2063],[132.3628,33.1879]]],[[[132.4012,33.1848],[132.4175,33.1957],[132.3938,33.2058],[132.4012,33.1848]]],[[[132.2891,33.1628],[132.2947,33.1794],[132.2765,33.1711],[132.2609,33.1835],[132.266,33.1681],[132.2891,33.1628]]],[[[132.3112,33.1481],[132.3102,33.1637],[132.2868,33.1595],[132.3112,33.1481]]],[[[133.248,36.161],[133.2775,36.1699],[133.2795,36.1882],[133.2872,36.1711],[133.3397,36.1699],[133.3341,36.1973],[133.3062,36.1996],[133.3345,36.2029],[133.3443,36.2241],[133.3387,36.196],[133.3697,36.2062],[133.3853,36.2687],[133.2817,36.3485],[133.2622,36.3283],[133.2241,36.3283],[133.2315,36.3183],[133.1952,36.3015],[133.2039,36.2798],[133.18,36.2881],[133.1826,36.2121],[133.2447,36.1897],[133.2298,36.1699],[133.2446,36.1771],[133.248,36.161]]],[[[132.9979,36.0389],[132.9792,36.0891],[132.9922,36.0844],[133.0051,36.1058],[133.0069,36.0743],[133.0431,36.0605],[133.0563,36.0833],[133.0391,36.1073],[133.0912,36.1391],[133.0684,36.1429],[133.0544,36.1268],[133.0139,36.1377],[133.0053,36.1079],[132.9771,36.1145],[132.9464,36.0643],[132.9979,36.0389]]],[[[133.0677,36.0351],[133.1027,36.0509],[133.0963,36.0723],[133.1519,36.0753],[133.117,36.0844],[133.1351,36.1025],[133.113,36.1201],[133.0931,36.1174],[133.0896,36.0963],[133.0814,36.1143],[133.0636,36.101],[133.0791,36.0695],[133.0677,36.0351]]],[[[133.0587,35.9941],[133.0715,36.011],[132.9993,36.0324],[133.0059,36.0036],[133.0375,36.0009],[133.0407,36.0133],[133.0587,35.9941]]],[[[130.2142,32.2503],[130.2255,32.262],[130.2415,32.2532],[130.2343,32.2623],[130.2678,32.2803],[130.2553,32.3063],[130.2191,32.2917],[130.2142,32.2503]]],[[[130.169,32.2257],[130.188,32.268],[130.1581,32.2444],[130.169,32.2257]]],[[[130.1578,32.0898],[130.171,32.1341],[130.2086,32.1556],[130.2034,32.1696],[130.1845,32.1643],[130.1996,32.1975],[130.1742,32.2291],[130.1626,32.2123],[130.1535,32.2281],[130.1446,32.2167],[130.1562,32.1953],[130.1062,32.2146],[130.1218,32.2001],[130.0901,32.18],[130.1149,32.1565],[130.1107,32.1258],[130.1578,32.0898]]],[[[129.8713,31.8006],[129.9033,31.8248],[129.9266,31.8213],[129.931,31.8649],[129.9074,31.8699],[129.9094,31.8428],[129.8345,31.8821],[129.8203,31.8437],[129.8349,31.8379],[129.8419,31.8697],[129.8468,31.8553],[129.8643,31.8589],[129.8411,31.8495],[129.8449,31.8298],[129.8651,31.8329],[129.8713,31.8006]]],[[[129.8277,31.7747],[129.8381,31.8189],[129.8103,31.799],[129.8277,31.7747]]],[[[129.7129,31.6216],[129.7371,31.6552],[129.7242,31.6699],[129.7377,31.7044],[129.7687,31.7135],[129.7999,31.7617],[129.8033,31.7822],[129.7855,31.7903],[129.7736,31.7404],[129.7064,31.7231],[129.6812,31.6633],[129.6571,31.6585],[129.665,31.6343],[129.6884,31.6216],[129.7057,31.6367],[129.7129,31.6216]]],[[[129.9299,30.8118],[129.9627,30.8291],[129.9376,30.8506],[129.9038,30.8385],[129.9299,30.8118]]],[[[130.9483,30.6352],[130.9502,30.5865],[130.9289,30.5439],[130.8718,30.4659],[130.8492,30.4675],[130.8713,30.3444],[130.9379,30.3753],[130.9669,30.3725],[130.9802,30.3978],[130.9619,30.4797],[131.0001,30.5485],[131.0339,30.5663],[131.0541,30.6057],[131.0551,30.6699],[131.0775,30.6969],[131.0815,30.7837],[131.0552,30.8391],[131.0022,30.7837],[130.9922,30.7251],[130.9397,30.6699],[130.9483,30.6352]]],[[[130.442,30.8003],[130.4255,30.8193],[130.3959,30.81],[130.442,30.8003]]],[[[130.2773,30.7723],[130.3197,30.7954],[130.3016,30.8079],[130.2673,30.7928],[130.2773,30.7723]]],[[[130.8508,30.7253],[130.8663,30.7415],[130.8558,30.7649],[130.8362,30.7269],[130.8508,30.7253]]],[[[130.2095,30.4215],[130.2603,30.4329],[130.2632,30.4479],[130.1989,30.4821],[130.1895,30.4721],[130.1441,30.4902],[130.1689,30.4568],[130.1945,30.4604],[130.2095,30.4215]]],[[[130.5216,30.2263],[130.5817,30.2387],[130.6497,30.2955],[130.6697,30.3725],[130.5418,30.4464],[130.4993,30.4523],[130.4968,30.4691],[130.4954,30.4554],[130.4631,30.4565],[130.4626,30.4358],[130.4164,30.3954],[130.3795,30.3929],[130.3759,30.3725],[130.4355,30.2403],[130.5216,30.2263]]],[[[129.9308,29.949],[129.9455,29.9604],[129.915,30.0068],[129.899,29.9754],[129.9308,29.949]]],[[[129.5425,29.8926],[129.552,29.9034],[129.5304,29.9146],[129.5425,29.8926]]],[[[129.8718,29.8161],[129.9161,29.8244],[129.8909,29.8697],[129.8494,29.8826],[129.8366,29.8497],[129.8718,29.8161]]],[[[129.7059,29.6022],[129.7373,29.6372],[129.7369,29.6718],[129.6845,29.6537],[129.7059,29.6022]]],[[[129.6036,29.4445],[129.6188,29.4511],[129.593,29.4763],[129.5835,29.4619],[129.6036,29.4445]]],[[[129.2197,29.1267],[129.2189,29.1575],[129.187,29.1549],[129.2197,29.1267]]],[[[128.9949,28.7915],[128.9968,28.8059],[128.972,28.8005],[128.9949,28.7915]]],[[[129.6453,28.4334],[129.6218,28.4159],[129.6194,28.45],[129.589,28.4135],[129.6211,28.477],[129.5606,28.4485],[129.5431,28.4619],[129.5171,28.4402],[129.5217,28.3991],[129.4968,28.3799],[129.4881,28.4119],[129.4755,28.3997],[129.4615,28.4126],[129.449,28.3815],[129.3939,28.3854],[129.4098,28.3635],[129.3982,28.3555],[129.3862,28.3729],[129.3657,28.3541],[129.3373,28.3671],[129.3027,28.3293],[129.2098,28.3062],[129.2487,28.2745],[129.2637,28.2739],[129.2647,28.2893],[129.2923,28.2843],[129.2725,28.2608],[129.2468,28.2525],[129.2243,28.2726],[129.2079,28.2519],[129.1799,28.2697],[129.1337,28.2537],[129.1831,28.2213],[129.2162,28.2287],[129.2468,28.2031],[129.253,28.2327],[129.2748,28.2321],[129.2639,28.2147],[129.2916,28.2227],[129.2623,28.1825],[129.2809,28.1971],[129.2946,28.1483],[129.3318,28.1292],[129.3574,28.1355],[129.3766,28.1094],[129.3639,28.1499],[129.3361,28.1681],[129.4003,28.1535],[129.4025,28.1905],[129.4746,28.2091],[129.4063,28.2491],[129.4421,28.2464],[129.4617,28.2961],[129.4811,28.2883],[129.5426,28.3101],[129.5331,28.3272],[129.5606,28.3325],[129.6132,28.3999],[129.6641,28.3977],[129.708,28.4207],[129.7211,28.4581],[129.6879,28.5298],[129.6469,28.5029],[129.6731,28.461],[129.6651,28.4383],[129.6474,28.4677],[129.6506,28.4217],[129.6453,28.4334]]],[[[129.9445,28.2739],[129.9767,28.2872],[130.0005,28.3365],[130.0332,28.3565],[130.0294,28.3714],[130.0083,28.3746],[129.9496,28.3259],[129.9188,28.3196],[129.9154,28.2951],[129.9445,28.2739]]],[[[129.2073,28.2821],[129.2208,28.2839],[129.2124,28.2961],[129.1831,28.3061],[129.2073,28.2821]]],[[[129.3174,28.0615],[129.3529,28.1026],[129.3439,28.1151],[129.3199,28.1004],[129.3013,28.121],[129.2939,28.1069],[129.286,28.1245],[129.2594,28.1164],[129.2741,28.1412],[129.2443,28.1216],[129.2426,28.1384],[129.2602,28.144],[129.2438,28.1481],[129.2738,28.151],[129.2684,28.1671],[129.2585,28.1571],[129.2546,28.1738],[129.2372,28.1505],[129.202,28.1807],[129.2375,28.1935],[129.1745,28.1868],[129.194,28.1451],[129.2188,28.1391],[129.2158,28.0758],[129.2518,28.1104],[129.2839,28.0624],[129.2906,28.0899],[129.3211,28.0952],[129.3174,28.0615]]],[[[129.1481,28.0133],[129.177,28.049],[129.1705,28.0679],[129.1479,28.0491],[129.1481,28.0133]]],[[[129.2569,28.0051],[129.267,28.0349],[129.2353,28.0305],[129.2126,28.0542],[129.2119,28.0219],[129.2569,28.0051]]],[[[128.902,27.7525],[128.8811,27.7201],[128.9156,27.6953],[128.9254,27.6651],[128.986,27.6696],[129.0368,27.7618],[128.9676,27.8177],[128.9558,27.8629],[128.9747,27.872],[128.9707,27.8915],[128.9037,27.8933],[128.8887,27.8811],[128.8781,27.8256],[128.902,27.7525]]],[[[128.5763,27.4005],[128.5323,27.4045],[128.5218,27.3869],[128.523,27.361],[128.5563,27.3288],[128.6063,27.3449],[128.7123,27.4344],[128.6895,27.4395],[128.6293,27.4075],[128.5763,27.4005]]],[[[128.4426,27.0186],[128.4557,27.0273],[128.4387,27.0651],[128.3962,27.0501],[128.3991,27.0349],[128.4426,27.0186]]],[[[132.5426,32.7023],[132.5714,32.717],[132.5441,32.7546],[132.5426,32.7023]]],[[[131.8245,32.6555],[131.8348,32.6699],[131.8077,32.6699],[131.8245,32.6555]]]]},"properties":{"region":"onimori","regionLabel":"Onimori"}}
]}