{"type":"FeatureCollection", "features": [
{"type":"Feature","geometry":{"type":"MultiPolygon","coordinates":[[[[140.7936,36.8596],[140.6164,36.9035],[140.5863,36.9455],[140.565,36.9129],[140.5919,36.8731],[140.5394,36.8592],[140.4637,36.7918],[140.4385,36.8216],[140.3773,36.838],[140.3631,36.8851],[140.3257,36.8928],[140.2941,36.9319],[140.2643,36.9334],[140.2408,36.9499],[140.2492,37.0261],[140.2046,37.024],[140.1941,37.0641],[140.1378,37.1064],[140.0228,37.1432],[139.9026,37.154],[139.831,37.1324],[139.822,37.0855],[139.7758,37.0917],[139.7529,37.0711],[139.6735,37.0579],[139.6651,37.0406],[139.5831,37.0154],[139.5356,36.9811],[139.4599,36.9697],[139.4285,36.925],[139.3934,36.9109],[139.232,36.9406],[139.2283,36.9613],[139.1803,36.9647],[139.1719,37.0003],[139.097,37.0588],[139.0902,37.0196],[139.047,36.9875],[138.9665,36.9789],[138.979,36.8911],[138.923,36.8835],[138.9284,36.8326],[138.8215,36.8171],[138.8261,36.7717],[138.7894,36.745],[138.7263,36.7638],[138.6957,36.7386],[138.514,36.6903],[138.5292,36.6565],[138.4728,36.6435],[138.4274,36.5961],[138.3972,36.4887],[138.4009,36.4347],[138.4571,36.4199],[138.4603,36.4046],[138.5042,36.4149],[138.5334,36.4023],[138.5922,36.4245],[138.6481,36.4083],[138.6535,36.3031],[138.6004,36.2785],[138.637,36.1745],[138.6093,36.1614],[138.5897,36.1785],[138.5773,36.1681],[138.598,36.1381],[138.6452,36.1198],[138.6314,36.0283],[138.7127,35.9853],[138.7387,35.9384],[138.7288,35.9093],[138.6933,35.8995],[138.6761,35.8699],[138.6218,35.8703],[138.6117,35.9094],[138.5906,35.9196],[138.5093,35.922],[138.4901,35.8964],[138.4544,35.9003],[138.4485,35.9461],[138.3703,35.9715],[138.2835,35.8595],[138.2379,35.8822],[138.1855,35.7949],[138.2356,35.7575],[138.1803,35.7128],[138.2186,35.6445],[138.268,35.5157],[138.2443,35.4558],[138.2571,35.4067],[138.2328,35.3762],[138.2511,35.3623],[138.2488,35.3315],[138.2856,35.3046],[138.3283,35.3275],[138.3586,35.3173],[138.3986,35.2003],[138.4404,35.1779],[138.4916,35.1685],[138.5329,35.2015],[138.5125,35.3141],[138.5349,35.3306],[138.5334,35.4106],[138.5819,35.4457],[138.6096,35.3932],[138.6635,35.3983],[138.6804,35.3577],[138.8218,35.3741],[138.8521,35.3902],[138.8732,35.3815],[138.9162,35.4005],[139.0017,35.3988],[139.0187,35.3298],[138.9752,35.2617],[138.9876,35.2012],[139.0215,35.1817],[139.0287,35.1506],[139.1115,35.1413],[139.161,35.141],[139.1419,35.1527],[139.1435,35.2327],[139.2108,35.2781],[139.3301,35.3121],[139.438,35.3189],[139.4765,35.3115],[139.4777,35.2975],[139.5355,35.3088],[139.5693,35.2937],[139.5764,35.2532],[139.6275,35.2155],[139.5998,35.1948],[139.6268,35.1628],[139.6107,35.1629],[139.6109,35.141],[139.678,35.1393],[139.6565,35.185],[139.725,35.2119],[139.7176,35.2471],[139.7466,35.2532],[139.691,35.2673],[139.6718,35.3009],[139.6606,35.2831],[139.634,35.2951],[139.6608,35.3281],[139.6225,35.332],[139.657,35.3416],[139.6565,35.3727],[139.6221,35.396],[139.6455,35.4029],[139.6318,35.4105],[139.6697,35.4027],[139.6907,35.4392],[139.6755,35.4315],[139.6743,35.4496],[139.6603,35.4412],[139.6322,35.466],[139.6819,35.4732],[139.6885,35.4952],[139.6963,35.4839],[139.7228,35.5083],[139.7203,35.4943],[139.7318,35.4995],[139.725,35.5169],[139.7339,35.5005],[139.7514,35.5237],[139.7649,35.5116],[139.752,35.5331],[139.7763,35.5095],[139.7942,35.5118],[139.7898,35.5267],[139.8087,35.5384],[139.7855,35.5705],[139.7543,35.5616],[139.7441,35.5894],[139.7616,35.6526],[139.7895,35.6569],[139.7767,35.6422],[139.7956,35.6498],[139.7788,35.6375],[139.7986,35.6219],[139.8065,35.6406],[139.8729,35.6385],[139.8977,35.6167],[139.8975,35.6294],[139.9396,35.6411],[139.9183,35.6555],[139.9475,35.6699],[139.9314,35.6745],[139.9848,35.6919],[139.986,35.6639],[140.003,35.6598],[139.9877,35.6546],[140.0137,35.6575],[140.0839,35.5967],[140.083,35.6139],[140.1005,35.6045],[140.089,35.5945],[140.1182,35.5957],[140.114,35.5723],[140.0817,35.5883],[140.0862,35.5693],[140.1271,35.5675],[140.091,35.5645],[140.1156,35.5505],[140.0883,35.5519],[140.0962,35.5353],[140.0614,35.5437],[140.0251,35.5015],[140.036,35.4953],[140.0112,35.484],[140.0228,35.4675],[140.0065,35.4791],[139.9904,35.452],[139.9822,35.4747],[139.9657,35.4685],[139.9744,35.4484],[139.9511,35.4559],[139.9486,35.4422],[139.9052,35.432],[139.8978,35.4091],[139.9189,35.3884],[139.8883,35.37],[139.8969,35.3583],[139.8454,35.3747],[139.8564,35.3514],[139.8381,35.3589],[139.8231,35.3443],[139.8391,35.3337],[139.8193,35.3163],[139.7805,35.315],[139.8419,35.2941],[139.8698,35.2349],[139.8169,35.1773],[139.8391,35.1293],[139.8244,35.1008],[139.8423,35.0865],[139.8212,35.072],[139.8321,35.0439],[139.8107,35.0392],[139.8506,35.0248],[139.8582,35.0032],[139.8482,34.9852],[139.7539,34.9777],[139.7536,34.9669],[139.8116,34.9431],[139.8371,34.9032],[139.8879,34.8995],[139.9561,34.9312],[139.9815,35.0113],[140.0842,35.0631],[140.1218,35.1155],[140.1925,35.1268],[140.2019,35.1097],[140.2336,35.1155],[140.2989,35.1509],[140.3117,35.1343],[140.3514,35.1814],[140.3775,35.181],[140.4148,35.3069],[140.395,35.3365],[140.3972,35.4187],[140.4689,35.5475],[140.6554,35.6882],[140.8308,35.7135],[140.8655,35.6934],[140.869,35.736],[140.8519,35.7439],[140.7071,35.925],[140.6773,35.912],[140.6908,35.8829],[140.6748,35.897],[140.6629,35.9286],[140.6784,35.9199],[140.7011,35.9377],[140.61,36.0865],[140.5597,36.2558],[140.5659,36.3047],[140.588,36.3107],[140.6268,36.3813],[140.6097,36.4053],[140.6082,36.4312],[140.6269,36.4312],[140.6081,36.4403],[140.6117,36.4871],[140.7164,36.6624],[140.7468,36.7807],[140.7705,36.8199],[140.8062,36.8313],[140.7936,36.8596]]],[[[140.7114,35.9405],[140.7106,35.9268],[140.7125,35.9547],[140.7114,35.9405]]],[[[139.7687,35.6265],[139.787,35.6021],[139.777,35.636],[139.7687,35.6265]]],[[[139.7495,35.5889],[139.7559,35.5772],[139.787,35.5804],[139.7704,35.5812],[139.753,35.6177],[139.7495,35.5889]]],[[[139.7656,35.5649],[139.7737,35.5745],[139.7577,35.5743],[139.7656,35.5649]]],[[[139.7456,35.4849],[139.7785,35.5044],[139.7363,35.4944],[139.7456,35.4849]]],[[[139.7146,35.4859],[139.7002,35.4786],[139.7127,35.4641],[139.7419,35.477],[139.7345,35.4947],[139.7146,35.4859]]],[[[139.6956,35.4496],[139.6925,35.472],[139.6727,35.4652],[139.6956,35.4496]]]]},"properties":{"prefecture":"edo","prefectureLabel":"Edo","prefectureJa":"江戸","parentRegion":"ogon"}},
{"type":"Feature","geometry":{"type":"MultiPolygon","coordinates":[[[[140.7936,36.8596],[140.8178,36.9087],[140.8963,36.9433],[140.9207,36.9343],[140.9695,36.9742],[141.0063,37.2125],[141.0284,37.2377],[141.0124,37.241],[141.0391,37.3639],[141.0279,37.6671],[140.9866,37.8241],[140.9597,37.8316],[140.9312,37.8963],[140.9145,37.9937],[140.9417,38.1319],[140.9952,38.23],[141.0241,38.2653],[141.0468,38.2651],[140.9991,38.2733],[141.0285,38.2826],[141.041,38.2721],[141.0899,38.3014],[141.0766,38.3199],[141.0361,38.3072],[141.0449,38.3193],[141.0251,38.3201],[141.0524,38.3334],[141.0388,38.344],[141.0664,38.3515],[141.0764,38.3787],[141.1333,38.3775],[141.1531,38.3566],[141.133,38.3406],[141.1387,38.3221],[141.1498,38.334],[141.1779,38.3204],[141.1606,38.3653],[141.2666,38.4199],[141.3589,38.4138],[141.3741,38.3837],[141.4312,38.3995],[141.4332,38.3736],[141.4588,38.3743],[141.418,38.3473],[141.4627,38.3515],[141.4748,38.3308],[141.4496,38.3157],[141.4968,38.3055],[141.5242,38.2719],[141.5338,38.3413],[141.5145,38.371],[141.4825,38.3769],[141.5101,38.3909],[141.5303,38.3821],[141.5388,38.4],[141.5141,38.3931],[141.5018,38.4158],[141.4724,38.3941],[141.4752,38.4199],[141.4476,38.4415],[141.4938,38.4375],[141.5126,38.4508],[141.4766,38.4641],[141.4968,38.4961],[141.4705,38.5215],[141.5137,38.5132],[141.5244,38.4895],[141.5427,38.5032],[141.5322,38.5491],[141.4968,38.5326],[141.46,38.5763],[141.5251,38.6106],[141.5294,38.6374],[141.4447,38.6432],[141.4448,38.6738],[141.4943,38.6741],[141.4906,38.69],[141.5107,38.6853],[141.5256,38.7167],[141.5609,38.6905],[141.5642,38.7405],[141.5461,38.7334],[141.5165,38.7718],[141.522,38.7891],[141.6034,38.8278],[141.5754,38.9059],[141.6055,38.8803],[141.6377,38.9019],[141.6743,38.8572],[141.6322,38.971],[141.5681,38.9957],[141.491,38.9985],[141.4916,38.9159],[141.4514,38.8767],[141.4663,38.8572],[141.4589,38.8148],[141.4297,38.8109],[141.4383,38.7833],[141.4107,38.7681],[141.3945,38.7997],[141.3104,38.8227],[141.3035,38.7933],[141.2736,38.7969],[141.2348,38.7484],[141.1812,38.7848],[141.1483,38.7846],[141.1407,38.8139],[141.1059,38.8232],[141.1051,38.8377],[141.1463,38.8559],[141.1401,38.8779],[141.0939,38.8881],[140.9865,38.8755],[140.958,38.9085],[140.8814,38.9291],[140.8262,38.9635],[140.7739,38.9585],[140.7645,39.0001],[140.8103,39.0574],[140.8024,39.0778],[140.7529,39.0865],[140.7702,39.1244],[140.7496,39.1397],[140.8085,39.1803],[140.7657,39.1977],[140.7888,39.238],[140.7182,39.2729],[140.7179,39.2965],[140.6933,39.3025],[140.7042,39.343],[140.6541,39.3909],[140.6586,39.4157],[140.6834,39.4222],[140.6831,39.4575],[140.7243,39.4807],[140.7307,39.5661],[140.7957,39.6033],[140.8219,39.6498],[140.8229,39.6882],[140.7749,39.7349],[140.8478,39.7961],[140.787,39.8238],[140.783,39.8657],[140.8261,39.8867],[140.8527,39.8665],[140.8781,39.8747],[140.8465,39.9745],[140.8447,40.0737],[140.8457,40.0748],[140.8323,40.0929],[140.809,40.1131],[140.7858,40.1544],[140.7625,40.2265],[140.7393,40.2883],[140.716,40.2856],[140.6928,40.2155],[140.6695,40.1363],[140.6463,40.1093],[140.623,40.1398],[140.5998,40.1822],[140.5765,40.1943],[140.5533,40.1731],[140.53,40.1402],[140.5068,40.1102],[140.4835,40.0856],[140.4603,40.0726],[140.437,40.0821],[140.4138,40.1094],[140.3906,40.1281],[140.3673,40.1156],[140.3441,40.0791],[140.3208,40.0437],[140.2976,40.0153],[140.2743,39.9718],[140.2511,39.9017],[140.2278,39.8383],[140.2046,39.8373],[140.1813,39.9146],[140.1581,40.0208],[140.1348,40.0884],[140.1116,40.0991],[140.0883,40.0942],[140.0651,40.1204],[140.0418,40.1787],[140.0186,40.2338],[140.0061,40.2479],[140.0001,40.2203],[140.0146,40.2185],[139.9865,40.2017],[139.953,40.0865],[139.8883,40.0029],[139.8133,39.9592],[139.7236,39.9822],[139.7007,40.0074],[139.6931,39.996],[139.7214,39.9526],[139.7063,39.9285],[139.7553,39.8571],[139.8502,39.8635],[139.8589,39.8962],[139.9209,39.9011],[139.9968,39.857],[140.0342,39.8049],[140.0383,39.7652],[140.0496,39.7738],[140.0609,39.6085],[140.0256,39.4199],[139.9805,39.3135],[139.9168,39.2763],[139.8942,39.2148],[139.9015,39.1699],[139.8698,39.1186],[139.8718,39.0687],[139.819,38.9609],[139.8354,38.9565],[139.8117,38.9451],[139.7617,38.8005],[139.6982,38.7302],[139.6149,38.6747],[139.5482,38.5534],[139.5988,38.5234],[139.7219,38.4966],[139.7061,38.3919],[139.7225,38.3943],[139.7531,38.3597],[139.8489,38.343],[139.8988,38.2925],[139.8605,38.2317],[139.7867,38.1929],[139.7127,38.2066],[139.688,38.1825],[139.6933,38.1155],[139.6723,38.0771],[139.6914,38.0746],[139.6928,38.0572],[139.6555,38.0343],[139.6249,37.9187],[139.6383,37.8819],[139.6811,37.8472],[139.7114,37.8545],[139.7415,37.8179],[139.6579,37.7547],[139.6273,37.6885],[139.5494,37.6488],[139.5852,37.5131],[139.5643,37.5023],[139.4285,37.5144],[139.3976,37.4601],[139.3623,37.4701],[139.2231,37.449],[139.1972,37.4109],[139.2317,37.3877],[139.2336,37.3439],[139.2119,37.286],[139.1648,37.238],[139.1966,37.1942],[139.2212,37.209],[139.2534,37.1648],[139.2361,37.1162],[139.2601,37.0471],[139.2443,37.0146],[139.2551,36.9895],[139.232,36.9406],[139.3934,36.9109],[139.4285,36.925],[139.4599,36.9697],[139.5356,36.9811],[139.5831,37.0154],[139.6651,37.0406],[139.6735,37.0579],[139.7529,37.0711],[139.7758,37.0917],[139.822,37.0855],[139.831,37.1324],[139.9026,37.154],[140.0228,37.1432],[140.1378,37.1064],[140.1941,37.0641],[140.2046,37.024],[140.2492,37.0261],[140.2408,36.9499],[140.2643,36.9334],[140.2941,36.9319],[140.3257,36.8928],[140.3631,36.8851],[140.3773,36.838],[140.4385,36.8216],[140.4637,36.7918],[140.5394,36.8592],[140.5919,36.8731],[140.565,36.9129],[140.5863,36.9455],[140.6164,36.9035],[140.7936,36.8596]]],[[[141.6252,38.8307],[141.6379,38.841],[141.624,38.8857],[141.6028,38.8727],[141.6252,38.8307]]],[[[141.1102,38.3313],[141.121,38.3451],[141.104,38.3429],[141.1102,38.3313]]],[[[141.5744,38.2693],[141.5899,38.3024],[141.5673,38.3139],[141.548,38.3027],[141.5744,38.2693]]],[[[141.4091,38.2855],[141.43,38.2933],[141.4163,38.3128],[141.4091,38.2855]]],[[[141.502,38.2464],[141.4607,38.2837],[141.4579,38.2683],[141.502,38.2464]]],[[[139.5441,39.1819],[139.5641,39.1975],[139.5498,39.2085],[139.5441,39.1819]]]]},"properties":{"prefecture":"kotowari","prefectureLabel":"Kotowari","prefectureJa":"理","parentRegion":"ogon"}},
{"type":"Feature","geometry":{"type":"MultiPolygon","coordinates":[[[[139.232,36.9406],[139.2551,36.9895],[139.2443,37.0146],[139.2601,37.0471],[139.2361,37.1162],[139.2534,37.1648],[139.2212,37.209],[139.1966,37.1942],[139.1648,37.238],[139.2119,37.286],[139.2336,37.3439],[139.2317,37.3877],[139.1972,37.4109],[139.2231,37.449],[139.3623,37.4701],[139.3976,37.4601],[139.4285,37.5144],[139.5643,37.5023],[139.5852,37.5131],[139.5494,37.6488],[139.6273,37.6885],[139.6579,37.7547],[139.7415,37.8179],[139.7114,37.8545],[139.6811,37.8472],[139.6383,37.8819],[139.6249,37.9187],[139.6555,38.0343],[139.6928,38.0572],[139.6914,38.0746],[139.6723,38.0771],[139.6933,38.1155],[139.688,38.1825],[139.7127,38.2066],[139.7867,38.1929],[139.8605,38.2317],[139.8988,38.2925],[139.8489,38.343],[139.7531,38.3597],[139.7225,38.3943],[139.7061,38.3919],[139.7219,38.4966],[139.5988,38.5234],[139.5482,38.5534],[139.4574,38.3965],[139.4504,38.2389],[139.3718,38.106],[139.2305,37.9946],[139.0696,37.9523],[138.8402,37.8142],[138.7468,37.604],[138.6172,37.4837],[138.554,37.3783],[138.4363,37.3241],[138.2495,37.1825],[138.255,37.2075],[138.2468,37.1815],[138.2163,37.1699],[138.149,37.1621],[138.1017,37.1744],[138.051,37.1303],[137.909,37.06],[137.6349,36.9803],[137.6675,36.9503],[137.711,36.9446],[137.7299,36.8269],[137.7625,36.7664],[137.8311,36.8089],[137.8764,36.8672],[137.8688,36.9161],[138.0137,36.9039],[138.0313,36.8782],[138.0033,36.8267],[138.0528,36.8001],[138.1152,36.8505],[138.1659,36.8448],[138.2136,36.8703],[138.2549,36.87],[138.2714,36.8431],[138.2889,36.8474],[138.2984,36.9131],[138.3431,36.9209],[138.3947,36.9973],[138.5246,37.0305],[138.5658,37.0214],[138.5864,36.9874],[138.5895,36.9141],[138.6909,36.8572],[138.6802,36.8222],[138.6956,36.8075],[138.6692,36.7763],[138.6957,36.7386],[138.7263,36.7638],[138.7894,36.745],[138.8261,36.7717],[138.8215,36.8171],[138.9284,36.8326],[138.923,36.8835],[138.979,36.8911],[138.9665,36.9789],[139.047,36.9875],[139.0902,37.0196],[139.097,37.0588],[139.1719,37.0003],[139.1803,36.9647],[139.2283,36.9613],[139.232,36.9406]]],[[[139.2224,38.4369],[139.2651,38.4887],[139.2247,38.4653],[139.2224,38.4369]]],[[[138.2449,37.8027],[138.3549,37.8298],[138.4703,37.8971],[138.5464,38.0083],[138.5735,38.0635],[138.5624,38.0881],[138.4821,38.0624],[138.4349,38.0865],[138.4505,38.1475],[138.4928,38.204],[138.5146,38.3325],[138.4589,38.3214],[138.439,38.2655],[138.3251,38.1987],[138.2423,38.0875],[138.2286,37.9795],[138.2549,37.965],[138.2744,38.0032],[138.3014,38.007],[138.3431,37.9645],[138.2849,37.9199],[138.2722,37.8519],[138.206,37.8281],[138.2449,37.8027]]]]},"properties":{"prefecture":"hamanachi","prefectureLabel":"Hamanachi","prefectureJa":"浜町","parentRegion":"ogon"}},
{"type":"Feature","geometry":{"type":"MultiPolygon","coordinates":[[[[137.6349,36.9803],[137.4351,36.9305],[137.4095,36.8967],[137.4187,36.8768],[137.3922,36.8066],[137.302,36.7581],[137.18,36.7577],[137.1218,36.7797],[137.1341,36.7601],[137.1112,36.7621],[137.092,36.7706],[137.1133,36.7816],[137.0825,36.7851],[137.0073,36.8365],[136.9837,36.8728],[137.0516,36.9595],[137.0574,37.1081],[137.0227,37.1014],[136.9839,37.0486],[136.9154,37.0909],[136.8877,37.0686],[136.8585,37.0727],[136.8713,37.0865],[136.859,37.1063],[136.8927,37.1113],[136.8996,37.1375],[136.8728,37.1447],[136.9071,37.2035],[136.9293,37.2066],[136.9064,37.2179],[136.96,37.2367],[136.946,37.2163],[137.0105,37.1835],[137.0335,37.1957],[137.0254,37.2049],[137.0688,37.2181],[137.0989,37.2791],[137.1529,37.2953],[137.1509,37.3069],[137.2344,37.298],[137.2676,37.3365],[137.2525,37.3407],[137.2672,37.3561],[137.2388,37.3735],[137.2568,37.4318],[137.3605,37.4518],[137.3275,37.5296],[137.2748,37.5335],[137.146,37.4996],[137.0291,37.433],[136.9243,37.3953],[136.8482,37.4021],[136.7378,37.348],[136.7216,37.3213],[136.7349,37.2862],[136.68,37.2064],[136.6701,37.1491],[136.6845,37.1359],[136.7099,37.1492],[136.727,37.1339],[136.7226,37.0557],[136.7434,37.0123],[136.7674,37.0016],[136.7474,36.8365],[136.6691,36.7013],[136.5745,36.5865],[136.4158,36.4199],[136.3479,36.3671],[136.2993,36.3519],[136.2437,36.2956],[136.1726,36.2532],[136.1232,36.2493],[136.1293,36.1919],[136.1124,36.2053],[136.095,36.1568],[136.0282,36.0958],[136.0108,36.0341],[135.9575,35.9816],[135.9968,35.9355],[135.9944,35.8879],[136.1,35.7771],[136.0737,35.6625],[136.0436,35.6587],[136.025,35.6806],[136.0429,35.7059],[136.0169,35.7639],[135.9539,35.7205],[135.9757,35.696],[135.9636,35.6563],[135.9801,35.6299],[135.8658,35.6086],[135.845,35.6357],[135.8143,35.6423],[135.8557,35.5917],[135.8393,35.5632],[135.8011,35.5713],[135.8336,35.5363],[135.7979,35.5251],[135.7646,35.5568],[135.7574,35.543],[135.7486,35.5665],[135.7132,35.569],[135.6888,35.5496],[135.7169,35.5401],[135.7183,35.5202],[135.7639,35.5361],[135.7181,35.4843],[135.5807,35.4899],[135.6264,35.4892],[135.6419,35.5081],[135.6282,35.5219],[135.6689,35.5252],[135.6609,35.5476],[135.5756,35.4932],[135.5342,35.4889],[135.5082,35.5032],[135.5177,35.5499],[135.4999,35.554],[135.5012,35.5238],[135.4685,35.5299],[135.4865,35.558],[135.449,35.5235],[135.4748,35.5049],[135.4591,35.4675],[135.4958,35.4251],[135.5253,35.4207],[135.5285,35.3797],[135.6419,35.3668],[135.7007,35.3437],[135.7684,35.3561],[135.7905,35.3867],[135.8071,35.3853],[135.8151,35.4131],[135.8528,35.4115],[135.8616,35.3951],[135.8904,35.4038],[135.9398,35.5204],[135.9815,35.4868],[136.0059,35.4916],[136.0261,35.5296],[136.0699,35.5266],[136.0831,35.5404],[136.1051,35.5288],[136.1133,35.5829],[136.1685,35.5655],[136.1767,35.5961],[136.1342,35.6699],[136.15,35.6978],[136.185,35.7037],[136.2806,35.6587],[136.2887,35.6203],[136.3233,35.6163],[136.3178,35.5469],[136.3457,35.536],[136.3718,35.5597],[136.4002,35.5299],[136.3872,35.4879],[136.4197,35.4665],[136.4115,35.4186],[136.4441,35.3895],[136.4134,35.3713],[136.3965,35.2574],[136.3781,35.2427],[136.4149,35.2177],[136.4083,35.1872],[136.4543,35.1616],[136.436,35.1301],[136.4412,35.0651],[136.4182,35.0484],[136.4143,34.9796],[136.373,34.9418],[136.3656,34.9049],[136.2503,34.8578],[136.1794,34.8865],[136.1308,34.8831],[136.1106,34.9019],[136.0852,34.8777],[136.1266,34.8618],[136.0857,34.8375],[136.0903,34.8139],[136.0218,34.7915],[136.0285,34.7572],[136.0552,34.7384],[136.07,34.7137],[136.0533,34.7051],[136.0855,34.6763],[136.0635,34.6521],[136.0403,34.6633],[136.0725,34.6366],[136.0495,34.5801],[136.1142,34.5459],[136.1556,34.5587],[136.1671,34.52],[136.2163,34.5281],[136.229,34.4941],[136.2059,34.4485],[136.0958,34.4352],[136.0687,34.3935],[136.1292,34.3159],[136.0947,34.301],[136.1311,34.2517],[136.0926,34.19],[136.1086,34.1843],[136.099,34.1187],[136.1182,34.0822],[136.0927,34.0826],[136.1033,34.0255],[136.0377,34.0403],[136.0032,34.0097],[136.011,33.9662],[135.9991,33.9556],[135.9766,33.9664],[135.9686,33.929],[135.9278,33.9409],[135.9177,33.9222],[135.9323,33.9167],[135.9086,33.9184],[135.8804,33.9091],[135.8838,33.8864],[135.9013,33.8835],[135.8744,33.8615],[135.8576,33.8729],[135.8563,33.818],[135.89,33.8019],[135.9071,33.7667],[135.937,33.7575],[135.9533,33.7286],[135.9762,33.7233],[135.9835,33.736],[136.0113,33.7235],[136.0879,33.8721],[136.1178,33.8988],[136.1302,33.8849],[136.148,33.8972],[136.1507,33.9309],[136.1797,33.9134],[136.1983,33.9199],[136.1803,33.9378],[136.2007,33.9445],[136.2135,33.9316],[136.2315,33.9474],[136.2217,33.9738],[136.192,33.9717],[136.2151,33.9839],[136.2108,33.9996],[136.2525,33.9842],[136.2384,33.9694],[136.2715,33.9731],[136.2574,33.9979],[136.2717,34.005],[136.2428,34.0146],[136.2821,34.0196],[136.244,34.0387],[136.2517,34.0616],[136.2085,34.0629],[136.2019,34.0769],[136.2362,34.0865],[136.2272,34.1],[136.2684,34.1288],[136.2492,34.0947],[136.273,34.1021],[136.2671,34.0815],[136.2911,34.0969],[136.2975,34.0865],[136.3153,34.1145],[136.2854,34.117],[136.2783,34.1616],[136.332,34.1803],[136.3368,34.197],[136.3219,34.1959],[136.3533,34.2116],[136.3621,34.1887],[136.3838,34.2165],[136.3998,34.219],[136.3988,34.2028],[136.4511,34.2197],[136.4408,34.2478],[136.4662,34.2567],[136.4634,34.2318],[136.4816,34.2197],[136.5083,34.2296],[136.4844,34.2395],[136.5042,34.2437],[136.501,34.2585],[136.5175,34.2385],[136.5041,34.2777],[136.5305,34.2731],[136.5267,34.2593],[136.5404,34.2774],[136.5483,34.25],[136.5481,34.2817],[136.5907,34.2946],[136.595,34.2813],[136.5718,34.275],[136.6048,34.2583],[136.6769,34.3165],[136.6377,34.3083],[136.6724,34.3246],[136.6598,34.3453],[136.6908,34.345],[136.6823,34.3238],[136.693,34.3482],[136.727,34.3422],[136.7089,34.3173],[136.6992,34.3254],[136.6867,34.2846],[136.7237,34.3041],[136.7637,34.2922],[136.7616,34.3155],[136.792,34.2881],[136.8107,34.2972],[136.7923,34.3091],[136.8052,34.3277],[136.8048,34.3089],[136.8478,34.3133],[136.8273,34.301],[136.8666,34.2865],[136.8338,34.2914],[136.8334,34.2706],[136.8453,34.2808],[136.8625,34.2701],[136.8351,34.2591],[136.7843,34.2782],[136.752,34.2725],[136.766,34.2604],[136.8474,34.2465],[136.8695,34.273],[136.8998,34.2761],[136.8779,34.3365],[136.9082,34.3653],[136.8654,34.3429],[136.8643,34.3636],[136.8511,34.3561],[136.8459,34.3697],[136.8253,34.3528],[136.8133,34.3676],[136.8333,34.3614],[136.8468,34.3719],[136.8572,34.3635],[136.8879,34.3921],[136.9125,34.3759],[136.9233,34.445],[136.8965,34.4535],[136.8756,34.4286],[136.8773,34.4739],[136.8488,34.4717],[136.8309,34.5061],[136.8157,34.4851],[136.8097,34.5081],[136.7769,34.5088],[136.6649,34.5591],[136.6427,34.5909],[136.5279,34.6109],[136.5571,34.6714],[136.5239,34.6793],[136.5337,34.7532],[136.6249,34.8688],[136.6471,34.9349],[136.6666,34.9369],[136.6332,34.9499],[136.6514,34.9931],[136.7491,35.037],[136.7704,35.0214],[136.7938,35.0149],[136.7804,35.0335],[136.8003,35.0297],[136.7967,35.0515],[136.8168,35.0515],[136.8121,35.0256],[136.8384,35.0309],[136.8317,35.0647],[136.8183,35.0633],[136.8281,35.0827],[136.8494,35.0779],[136.8458,35.034],[136.8672,35.093],[136.8919,35.0917],[136.8518,35.0162],[136.8696,35.0083],[136.8456,35.0079],[136.8202,34.9662],[136.8211,34.8837],[136.8377,34.8843],[136.8663,34.8365],[136.8398,34.7639],[136.9297,34.7029],[136.9761,34.7017],[136.9631,34.7347],[136.9143,34.7709],[136.9279,34.8655],[136.9639,34.8765],[136.9808,34.9593],[136.9836,34.8933],[136.9485,34.8264],[136.9968,34.8161],[137.0273,34.7773],[137.1682,34.7876],[137.1751,34.7656],[137.2161,34.8229],[137.2509,34.8055],[137.2979,34.8105],[137.3112,34.8037],[137.3305,34.7806],[137.3203,34.7326],[137.3515,34.7274],[137.3082,34.7248],[137.3096,34.7006],[137.325,34.7022],[137.3069,34.6784],[137.2846,34.6789],[137.3008,34.6937],[137.3008,34.7278],[137.2847,34.7309],[137.2608,34.6958],[137.2456,34.7061],[137.224,34.6759],[137.1309,34.6559],[137.14,34.6452],[137.1185,34.6348],[137.074,34.6623],[137.0175,34.5783],[137.1443,34.5904],[137.4839,34.6738],[137.5855,34.6789],[137.7468,34.657],[137.7444,34.6677],[137.7986,34.6447],[137.9015,34.6671],[138.0566,34.6479],[138.0631,34.6577],[138.0614,34.6466],[138.2267,34.5946],[138.1942,34.6376],[138.1976,34.6699],[138.2268,34.7273],[138.3006,34.7709],[138.2892,34.7817],[138.3387,34.8326],[138.3242,34.8697],[138.3573,34.9151],[138.5148,34.9835],[138.5332,35.0131],[138.5041,35.0153],[138.5029,34.9859],[138.494,35.032],[138.533,35.0553],[138.5564,35.1015],[138.6393,35.1149],[138.6956,35.1447],[138.8278,35.107],[138.8871,35.0465],[138.9063,35.0479],[138.8896,35.0173],[138.7874,35.0302],[138.7766,34.9705],[138.7632,34.9751],[138.7897,34.908],[138.7561,34.8845],[138.7753,34.8563],[138.7528,34.7999],[138.7756,34.7517],[138.7391,34.7262],[138.7392,34.6899],[138.7883,34.6696],[138.778,34.6397],[138.8436,34.6011],[138.9048,34.6289],[138.9478,34.6737],[138.9635,34.6725],[138.9571,34.654],[138.9872,34.6579],[138.9734,34.6907],[138.9975,34.7425],[139.0478,34.7677],[139.0825,34.8521],[139.1405,34.8907],[139.1452,34.9558],[139.0957,34.9756],[139.0835,35.0032],[139.0984,35.0075],[139.0995,35.0461],[139.0687,35.0568],[139.1115,35.1413],[139.0287,35.1506],[139.0215,35.1817],[138.9876,35.2012],[138.9752,35.2617],[139.0187,35.3298],[139.0017,35.3988],[138.9162,35.4005],[138.8732,35.3815],[138.8521,35.3902],[138.8218,35.3741],[138.6804,35.3577],[138.6635,35.3983],[138.6096,35.3932],[138.5819,35.4457],[138.5334,35.4106],[138.5349,35.3306],[138.5125,35.3141],[138.5329,35.2015],[138.4916,35.1685],[138.4404,35.1779],[138.3986,35.2003],[138.3586,35.3173],[138.3283,35.3275],[138.2856,35.3046],[138.2488,35.3315],[138.2511,35.3623],[138.2328,35.3762],[138.2571,35.4067],[138.2443,35.4558],[138.268,35.5157],[138.2186,35.6445],[138.1803,35.7128],[138.2356,35.7575],[138.1855,35.7949],[138.2379,35.8822],[138.2835,35.8595],[138.3703,35.9715],[138.4485,35.9461],[138.4544,35.9003],[138.4901,35.8964],[138.5093,35.922],[138.5906,35.9196],[138.6117,35.9094],[138.6218,35.8703],[138.6761,35.8699],[138.6933,35.8995],[138.7288,35.9093],[138.7387,35.9384],[138.7127,35.9853],[138.6314,36.0283],[138.6452,36.1198],[138.598,36.1381],[138.5773,36.1681],[138.5897,36.1785],[138.6093,36.1614],[138.637,36.1745],[138.6004,36.2785],[138.6535,36.3031],[138.6481,36.4083],[138.5922,36.4245],[138.5334,36.4023],[138.5042,36.4149],[138.4603,36.4046],[138.4571,36.4199],[138.4009,36.4347],[138.3972,36.4887],[138.4274,36.5961],[138.4728,36.6435],[138.5292,36.6565],[138.514,36.6903],[138.6957,36.7386],[138.6692,36.7763],[138.6956,36.8075],[138.6802,36.8222],[138.6909,36.8572],[138.5895,36.9141],[138.5864,36.9874],[138.5658,37.0214],[138.5246,37.0305],[138.3947,36.9973],[138.3431,36.9209],[138.2984,36.9131],[138.2889,36.8474],[138.2714,36.8431],[138.2549,36.87],[138.2136,36.8703],[138.1659,36.8448],[138.1152,36.8505],[138.0528,36.8001],[138.0033,36.8267],[138.0313,36.8782],[138.0137,36.9039],[137.8688,36.9161],[137.8764,36.8672],[137.8311,36.8089],[137.7625,36.7664],[137.7299,36.8269],[137.711,36.9446],[137.6675,36.9503],[137.6349,36.9803]]],[[[136.8119,34.9961],[136.8217,35.0176],[136.8004,35.0036],[136.8119,34.9961]]],[[[136.8086,34.8393],[136.8241,34.8512],[136.8041,34.8779],[136.8086,34.8393]]],[[[137.3063,34.7847],[137.3244,34.7869],[137.3154,34.7963],[137.3033,34.7929],[137.3063,34.7847]]],[[[136.6657,34.9729],[136.6747,35.0024],[136.6528,34.9918],[136.6657,34.9729]]],[[[136.8586,34.506],[136.9042,34.5203],[136.8998,34.5377],[136.8667,34.5279],[136.8788,34.5263],[136.8471,34.5101],[136.8586,34.506]]],[[[136.8863,34.4766],[136.9084,34.5029],[136.8757,34.4921],[136.8863,34.4766]]],[[[136.9464,37.0915],[136.9968,37.1197],[137.0498,37.1234],[137.0443,37.1639],[137,37.1355],[136.967,37.1551],[136.9757,37.1403],[136.9408,37.1464],[136.9242,37.1309],[136.9262,37.1447],[136.9013,37.152],[136.9464,37.0915]]]]},"properties":{"prefecture":"kessen","prefectureLabel":"Kessen","prefectureJa":"決戦","parentRegion":"ogon"}}
]}